BSN,Building,Name,type,color,eMail,Internet,Standort,Straße,PLZ,lat,lng
01B01,01B01,"OSZ Banken, Immobilien und Versicherungen",osz,black,mail@osz-biv.de,http://www.osz-biv.de,Hauptstandort,Alt-Moabit 10,10557,52.5237823,13.3577818
01B02,01B02,Staatliche Technikerschule Berlin,osz,black,info@technikerschule-berlin.de,https://www.technikerschule-berlin.de,Hauptstandort,Bochumer Str. 8,10555,52.5226965,13.3380649
01B03,01B03,"OSZ Kommunikations-, Informations- und Medientechnik",osz,black,verwaltung@oszkim.de,http://www.oszkim.de,Hauptstandort,Osloer Str. 23-26,13359,52.5567158,13.3793791
01B04,01B04,OSZ Gesundheit I,osz,black,sekretariat@osz-gesundheit.de,http://www.osz-gesundheit.de,Hauptstandort,Schwyzer Str. 6-8,13349,52.55862,13.35463
01B05,01B05,Staatliche Wirtschaftsfachschule für Hotellerie und Gastronomie Berlin (HOFA),osz,black,info@hotelfachschule-berlin.de,http://www.hotelfachschule-berlin.de,Hauptstandort,Niederwallstr. 6-7,10117,52.51238,13.398
01G01,01G01,Grundschule am Arkonaplatz,grundschule,green,sekretariat@arkonaplatz.schule.berlin.de,http://www.grundschuleamarkonaplatz.de,Hauptstandort,Ruppiner Str. 47-48,10115,52.53684,13.40039
01G02,01G02,Papageno-Grundschule,grundschule,green,sekretariat@papageno-grundschule.de,http://www.papageno-grundschule.de,Hauptstandort,Bergstr. 58,10115,52.532833,13.391048
01G04,01G04,Kastanienbaum-Grundschule,grundschule,green,sekretariat@kastanienbaumgrundschule.de,http://www.kastanienbaumgrundschule.de,Hauptstandort,Gipsstr. 23 A,10119,52.52678,13.4018
01G05,01G05,Grundschule Neues Tor,grundschule,green,schulleitung@01G05.schule.berlin.de,http://www.neues-tor.de,Hauptstandort,Hannoversche Str. 20,10115,52.52759,13.38033
01G07,01G07,GutsMuths-Grundschule,grundschule,green,sekretariat@gutsmuths.schule.berlin.de,http://www.gutsmuths-grundschule.de,Hauptstandort,Singerstr. 8,10179,52.516365,13.42412
01G08,01G08,Grundschule am Brandenburger Tor,grundschule,green,sekretariat@gsabt.schule.berlin.de,http://www.Grundschule-am-Brandenburger-Tor.de,Hauptstandort,Wilhelmstr. 52,10117,52.51318,13.38276
01G10,01G10,City-Grundschule,grundschule,green,Sekretariat@city.schule.berlin.de,http://www.city-grundschule.de,Hauptstandort,Sebastianstr. 57,10179,52.50737,13.40892
01G11,01G11,Kurt-Tucholsky-Grundschule,grundschule,green,01g11@01g11.schule.berlin.de,http://www.kurt-tucholsky-grundschule.de,Hauptstandort,Rathenower Str. 18,10559,52.53026,13.35303
01G15,01G15,Anne-Frank-Grundschule,grundschule,green,sekretariat@anne-frank-grundschule.de,http://anne-frank-grundschule.de,Hauptstandort,Paulstr. 20 B,10557,52.51827,13.35527
01G16,01G16,Moabiter Grundschule,grundschule,green,kontakt@moabiter-grundschule.de,http://www.moabiter-grundschule.de,Hauptstandort,Paulstr. 28,10557,52.521974,13.35657
01G18,01G18,Carl-Bolle-Grundschule,grundschule,green,info@carl-bolle-grundschule.de,http://www.carl-bolle-grundschule.de,Hauptstandort,Waldenserstr. 20-21,10551,52.528894,13.331807
01G19,01G19,Hansa-Grundschule,grundschule,green,sekretariat@hansa.online,http://www.hansa-grundschule-online.de,Hauptstandort,Lessingstr. 5,10555,52.5214,13.34019
01G24,01G24,Gottfried-Röhl-Grundschule,grundschule,green,01G24@01G24.schule.berlin.de,,Hauptstandort,Ungarnstr. 75,13349,52.55719,13.35717
01G25,01G25,Rudolf-Wissell-Grundschule,grundschule,green,Schulleitung@rudolf-wissell.schule.berlin.de,http://www.rudolf-wissell-grundschule.de,Hauptstandort,Ellerbeker Str. 7-8,13357,52.55158,13.39611
01G27,01G27,Gesundbrunnen-Grundschule,grundschule,green,sekretariat@gesundbrunnen-grundschule.de,http://www.gesundbrunnen-grundschule.de,Hauptstandort,Prinzenallee 8,13357,52.55338,13.38292
01G28,01G28,Brüder-Grimm-Grundschule,grundschule,green,sekretariat@bggs.schule.berlin.de,http://bggs-berlin.de,Hauptstandort,Tegeler Str. 18-19,13353,52.54146,13.35783
01G29,01G29,Wilhelm-Hauff-Grundschule,grundschule,green,01g29@01g29.schule.berlin.de,http://wilhelm-hauff-grundschule.de,Hauptstandort,Gotenburger Str. 8,13359,52.557813,13.384347
01G31,01G31,Wedding-Grundschule,grundschule,green,plorenz@wedding-schule.de,http://www.wedding-schule.de,Hauptstandort,Antonstr. 10,13347,52.546206,13.362468
01G32,01G32,Carl-Kraemer-Grundschule,grundschule,green,carl-kraemer-grundschule@t-online.de,http://www.carl-kraemer-gs.de,Hauptstandort,Zechliner Str. 4,13359,52.56107,13.38284
01G35,01G35,Humboldthain-Grundschule,grundschule,green,sekretariat@humboldthain.schule.berlin.de,http://www.humboldthain-grundschule.de,Hauptstandort,Grenzstr. 7,13355,52.54323,13.380143
01G36,01G36,Andersen-Grundschule,grundschule,green,info@andersen-grundschule.de,http://www.andersen-grundschule.de,Hauptstandort,Kattegatstr. 26,13359,52.56553,13.38891
01G37,01G37,Heinrich-Seidel-Grundschule,grundschule,green,info@hsgs.berlin,http://www.hsgs.berlin,Hauptstandort,Ramlerstr. 9-10,13355,52.54695,13.39407
01G38,01G38,Gustav-Falke-Grundschule,grundschule,green,info@gustav-falke-schule.de,http://www.gustav-falke-schule.de,Hauptstandort,Strelitzer Str. 42,13355,52.53795,13.39162
01G39,01G39,Vineta-Grundschule,grundschule,green,info@vineta.schule.berlin.de,http://www.vineta-grundschule.de,Hauptstandort,Demminer Str. 27,13355,52.54222,13.3969
01G40,01G40,Möwensee-Grundschule,grundschule,green,sekretariat@moewensee-schule.de,http://www.moewensee-schule.de,Hauptstandort,Afrikanische Str. 123-125,13351,52.55575,13.33375
01G41,01G41,Erika-Mann-Grundschule,grundschule,green,erika.mann.grundschule@googlemail.com,http://www.erika-mann-grundschule.com,Hauptstandort,Utrechter Str. 25-27,13347,52.55099,13.35786
01G42,01G42,Anna-Lindh-Schule (Grundschule),grundschule,green,01G42@01G42.schule.berlin.de,http://www.anna-lindh-schule.de,Hauptstandort,Guineastr. 17-18,13351,52.550375,13.341886
01G43,01G43,Albert-Gutzmann-Schule (Grundschule),grundschule,green,info@gutzmannschule.de,http://www.gutzmannschule.de,Hauptstandort,Orthstr. 1,13357,52.549234,13.373261
01G44,01G44,Allegro-Grundschule,grundschule,green,berlin@allegro-grundschule.de,http://www.allegro-grundschule.de,Hauptstandort,Lützowstr. 83-85,10785,52.503571,13.363001
01G45,01G45,Leo-Lionni-Grundschule,grundschule,green,info@leo-lionni-grundschule.de,http://www.leo-lionni-grundschule.de,Hauptstandort,Müllerstr. 158,13353,52.544342,13.361352
01G46,01G46a,Grundschule am Koppenplatz,grundschule,green,sekretariat@koppenplatz.schule.berlin.de,http://www.schule-am-koppenplatz.de,Hauptstandort,Koppenplatz 12,10115,52.52778,13.39745
01G46,01G46b,Grundschule am Koppenplatz,grundschule,green,,,Filiale,Auguststr. 21,10117,52.526814,13.396224
01G46,01G46c,Grundschule am Koppenplatz,grundschule,green,,,Filiale,Bergstr. 5-9,10115,52.529508,13.395273
01G47,01G47,Miriam-Makeba-Grundschule,grundschule,green,01G47@01G47.schule.berlin.de,http://www.miriam-makeba-schule.de,Hauptstandort,Zinzendorfstr. 15-16,10555,52.52232,13.331446
01G48,01G48,48. Schule (Grundschule),grundschule,green,01G48@01G48.schule.berlin.de,http://www.48-schule-berlin.de,Hauptstandort,Chausseestr. 82,13353,52.538256,13.372242
01K01,01K01,Willy-Brandt-Schule,iss,beige,kontakt@willy-brandt-teamschule.de,http://www.willy-brandt-teamschule.de,Hauptstandort,Grüntaler Str. 5,13357,52.55101,13.386048
01K02,01K02,Ernst-Schering-Schule,iss,beige,info@ernst-schering-schule.de,http://www.ernst-schering-schule.de,Hauptstandort,Lütticher Str. 47/48,13353,52.54701,13.34782
01K03,01K03,Ernst-Reuter-Schule,iss,beige,info@ernst-reuter-oberschule.de,http://ernst-reuter-schule.berlin,Hauptstandort,Stralsunder Str. 57,13355,52.538896,13.394373
01K04,01K04,Heinrich-von-Stephan-Gemeinschaftsschule,gemeinschaft,lightgreen,sekretariat@hvs.schule.berlin.de,http://www.hvs-schule-berlin.de,Hauptstandort,Neues Ufer 6,10553,52.524775,13.316714
01K06,01K06,Herbert-Hoover-Schule (Integrierte Sekundarschule),iss,beige,schulleitung@hhs-berlin.de,http://www.hhs-berlin.de,Hauptstandort,Pankstraße 18-19,13357,52.546324,13.373398
01K07,01K07,Hemingway-Schule,iss,beige,sekretariat@hemingway-schule.de,http://www.hemingway-oberschule.de,Hauptstandort,Gartenstr. 10-17,10115,52.530483,13.391682
01K08,01K08a,Schule am Schillerpark (Integrierte Sekundarschule),iss,beige,sekretariat@schule-am-schillerpark.de,http://www.Schule-am-Schillerpark.de,Hauptstandort,Ofener Str. 6,13349,52.55628,13.3457
01K08,01K08b,Schule am Schillerpark (Integrierte Sekundarschule),iss,beige,,,Arbeitslehrezentrum,Edinburger Str. 53,13349,52.557154,13.345913
01K09,01K09,Hedwig-Dohm-Schule (Integrierte Sekundarschule),iss,beige,hedwig-dohm-os@web.de,http://www.hedwig-dohm-os.de,Hauptstandort,Stephanstraße 27,10559,52.53367,13.34651
01K10,01K10a,Theodor-Heuss-Gemeinschaftsschule,gemeinschaft,lightgreen,sekretariat@thgberlin.de,http://www.thgberlin.de,Hauptstandort,Quitzowstr. 141,10559,52.535722,13.354875
01K10,01K10b,Theodor-Heuss-Gemeinschaftsschule,gemeinschaft,lightgreen,,,Filiale,Siemensstr. 20,10551,52.532971,13.335494
01S01,01S01,Schule am Zille-Park,sonderpaedagogik,pink,info@schule-am-zille-park.de,http://www.schule-am-zille-park.de,Hauptstandort,Ravenéstraße 10-12,13347,52.542859,13.372782
01S05,01S05,Schule in der Charité,sonderpaedagogik,pink,sekretariat@sidc.schule.berlin.de,klinikschulecharite.wordpress.com,Hauptstandort,Augustenburger Platz 1,13353,52.542216,13.347104
01S06,01S06,Albert-Gutzmann-Schule,sonderpaedagogik,pink,info@gutzmannschule.de,http://www.gutzmannschule.de,Hauptstandort,Orthstraße 1,13357,52.549234,13.373261
01S07,01S07,Charlotte-Pfeffer-Schule,sonderpaedagogik,pink,charlotte-pfeffer-schule@gmx.de,http://www.charlotte-pfeffer.schule-berlin.net,Hauptstandort,Berolinastraße 8,10178,52.52226,13.42328
01Y02,01Y02,John-Lennon-Gymnasium,gymnasium,orange,sekretariat@jlgym-berlin.de,http://www.jlgym-berlin.de,Hauptstandort,Zehdenicker Straße 17,10119,52.530923,13.404105
01Y04,01Y04,Musikgymnasium Carl Philipp Emanuel Bach,gymnasium,orange,bach.musikgymnasium@berlin.de,http://musikgymnasium-berlin.de,,Rheinsberger Straße 4-5,10115,52.536635,13.395435
01Y07,01Y07,Französisches Gymnasium,gymnasium,orange,mdormann-farnir@fg-berlin.eu,http://www.fg-berlin.eu,,Derfflingerstr. 7,10785,52.50318,13.35549
01Y08,01Y08,Lessing-Gymnasium,gymnasium,orange,post@lessing-gymnasium-berlin.de,http://www.lessing-gymnasium-berlin.eu,Hauptstandort,Schöningstraße 17,13349,52.55734,13.34371
01Y09,01Y09,Diesterweg-Gymnasium,gymnasium,orange,sekretariat@diesterweg-gymnasium-berlin.de,http://www.diesterweg-gymnasium-berlin.de,Hauptstandort,Böttgerstraße 2,13357,52.550012,13.378338
01Y11,01Y11,Max-Planck-Gymnasium,gymnasium,orange,sekretariat@mpg-berlin.de,http://www.mpg-berlin.de,Hauptstandort,Singerstraße 8a,10179,52.515983,13.422886
01Y12,01Y12,Gymnasium Tiergarten,gymnasium,orange,sekretariat@gymnasium-tiergarten.de,http://gymnasium-tiergarten.de,Hauptstandort,Altonaer Straße 26,10555,52.51935,13.3394
02B01,02B01,August-Sander-Schule,osz,black,schulbuero@august-sander-schule.de,http://www.august-sander-schule.de,Hauptstandort,Naglerstr. 1-3,10245,52.5027351,13.4504815
02B02,02B02,Hans-Böckler-Schule (OSZ Konstruktionsbautechnik),osz,black,info@osz-kt.de,http://www.osz-kt.de,Hauptstandort,Lobeckstr. 76,10969,52.49909,13.40309
02B03,02B03,Modeschule Berlin (OSZ Bekleidung und Mode),osz,black,info@modeschule-berlin.de,https://www.modeschule-berlin.de/,Hauptstandort,Kochstr. 9,10969,52.50604,13.38927
02B04,02B04,OSZ Handel 1,osz,black,sekretariat-schulleitung@oszhandel1.de,http://www.oszhandel.de,Hauptstandort,Wrangelstr. 98,10997,52.5010196,13.436563
02B05,02B05,Jane-Addams-Schule (OSZ Sozialwesen),osz,black,kontakt@osz-soz.de,http://www.osz-soz.de,Hauptstandort,Straßmannstr. 14-16,10249,52.52161,13.44855
02G01,02G01a,Spartacus-Grundschule,grundschule,green,schulleitung@grundschule-friedrichshain.de,http://www.grundschule-friedrichshain.de,Hauptstandort,Friedenstr. 40-45,10249,52.52106,13.43582
02G01,02G01b,Spartacus-Grundschule,grundschule,green,,,Filiale,Pufendorfstraße,10249,52.521224,13.438977
02G02,02G02a,Hausburg-Grundschule,grundschule,green,sek@hausburg-gs.schule-berlin-fk.de,http://www.hausburgschule.de,Hauptstandort,Hausburgstr. 20,10249,52.524208,13.454324
02G03,02G03,Justus-von-Liebig-Grundschule,grundschule,green,02g03@02g03.schule.berlin.de,http://www.jvl-gs.de,Hauptstandort,Liebigstr. 18A,10247,52.518699,13.457697
02G04,02G04a,Pettenkofer-Grundschule,grundschule,green,Sekretariat@pettenkofer.schule.berlin.de,http://www.pettenkofer-grundschule.de,Hauptstandort,Pettenkoferstr. 20-24,10247,52.518656,13.471
02G07,02G07a,Ludwig-Hoffmann-Grundschule,grundschule,green,schulleitung@l-hoffmann.schule.berlin.de,http://www.ludwig-hoffmann-grundschule.de,Hauptstandort,Lasdehner Str. 21-23,10243,52.513902,13.448500
02G07,02G07b,Ludwig-Hoffmann-Grundschule,grundschule,green,,,Filiale,Lasdehner Str. 17,10243,52.514523,13.449147
02G07,02G07c,Ludwig-Hoffmann-Grundschule,grundschule,green,,,Filiale,Lasdehner Str. 13,10243,52.514798,13.449818
02G08,02G08,Grundschule am Traveplatz,grundschule,green,sek@gs-am-traveplatz.schule-berlin-fk.de,http://www.grundschule-am-traveplatz.de,Hauptstandort,Jessnerstr. 24-32,10247,52.511492,13.471855
02G09,02G09,Zille-Grundschule,grundschule,green,schulleitung@zille-grundschule.de,http://www.Zille-Grundschule.de,Hauptstandort,Boxhagener Str. 46,10245,52.50898,13.4653
02G10,02G10a,Modersohn-Grundschule,grundschule,green,Schulleitung@modersohn.schule.berlin.de,http://www.modersohn-schule.de,Hauptstandort,Niemannstr. 3,10245,52.50705,13.46024
02G10,02G10b,Modersohn-Grundschule,grundschule,green,,,Filiale,Corinthstraße 7,10245,52.501886,13.458622
02G11,02G11,Thalia-Grundschule,grundschule,green,Schulleitung@thalia-gs.schule.berlin.de,http://www.thalia-grundschule.de,Hauptstandort,Alt-Stralau 34,10245,52.492881,13.476151
02G12,02G12,Kurt-Schumacher-Grundschule,grundschule,green,02g12@02g12.schule.berlin.de,http://www.kurt-schumacher-grundschule.de,Hauptstandort,Puttkamerstr. 19,10969,52.504384,13.388493
02G13,02G13,Charlotte-Salomon-Grundschule,grundschule,green,Sekretariat@02G13.schule.berlin.de,http://www.charlotte-salomon-grundschule.de,Hauptstandort,Großbeerenstr. 40,10965,52.49041,13.38183
02G14,02G14a,Galilei-Grundschule,grundschule,green,sekretariat@galilei-grundschule.de,http://www.galilei-grundschule.de,Hauptstandort,Friedrichstr. 13,10969,52.501885,13.391531
02G16,02G16,Lenau-Grundschule,grundschule,green,info@lenau.net,http://lenau.net,Hauptstandort,Nostitzstr. 60,10961,52.49381,13.39154
02G18,02G18,Nürtingen-Grundschule,grundschule,green,sek@nuertingen.schule.berlin.de,http://www.nuertingen-grundschule.de,Hauptstandort,Mariannenplatz 28,10997,52.505234,13.427382
02G19,02G19,Fanny-Hensel-Grundschule,grundschule,green,info@fanny-hensel-grundschule.de,http://www.Fanny-Hensel-Grundschule.de,Hauptstandort,Schöneberger Str. 23,10963,52.50303,13.38014
02G20,02G20,Bürgermeister-Herz-Grundschule,grundschule,green,sekretariat@bmh.schule.berlin.de,http://www.bmh-schule.de,Hauptstandort,Wilmsstr. 10,10961,52.49488,13.40516
02G21,02G21,Reinhardswald-Grundschule,grundschule,green,sekretariat@reinhardswald.schule.berlin.de,http://www.reinhardswald-grundschule.de,Hauptstandort,Gneisenaustr. 73-74,10961,52.49059,13.3999
02G22,02G22,Jens-Nydahl-Grundschule,grundschule,green,sekretariat@jng.schule.berlin.de,,Hauptstandort,Kohlfurter Str. 20,10999,52.497294,13.41619
02G23,02G23a,Fichtelgebirge-Grundschule,grundschule,green,schulleitung@fichtelgebirge.schule.berlin.de,http://fichtelgebirge-grundschule-berlin.de,Hauptstandort,Görlitzer Ufer 2,10997,52.495740,13.445167
02G24,02G24,Otto-Wels-Grundschule,grundschule,green,sekretariat@otto-wels.schule.berlin.de,http://www.owg-berlin.de,Hauptstandort,Alexandrinenstr. 12,10969,52.499923,13.401623
02G26,02G26,Lemgo-Grundschule,grundschule,green,Sekretariat@lemgo.schule.de,http://www.lemgo-grundschule.de,Hauptstandort,Böckhstr. 5,10967,52.494198,13.416454
02G27,02G27,Hunsrück-Grundschule,grundschule,green,schulleitung@hunsrueck-grundschule.de,http://www.Hunsrueck-Grundschule.de,Hauptstandort,Manteuffelstr. 79,10999,52.497732,13.426632
02G29,02G29a,Heinrich-Zille-Grundschule,grundschule,green,Heinrich-Zille-GS@web.de,http://www.Heinrich-Zille-Grundschule.de,Hauptstandort,Waldemarstr. 118,10997,52.500729,13.429182
02G29,02G29b,Heinrich-Zille-Grundschule,grundschule,green,,,Filiale,Lausitzer Platz 9,10997,52.500249,13.431952
02G31,02G31,Adolf-Glaßbrenner-Grundschule,grundschule,green,Adolf-Glassbrenner-Schule@web.de,http://www.adolf-glassbrenner-schule.de,Hauptstandort,Hagelberger Str. 34,10965,52.49085,13.38065
02G32,02G32,Clara-Grunwald-Grundschule,grundschule,green,clara-grunwald-gs@gmx.de,http://www.clara-grunwald.cidsnet.de,Hauptstandort,Hallesche Str. 24,10963,52.50077,13.38313
02G33,02G33,Aziz-Nesin-Grundschule,grundschule,green,Sekretariat@aziz-nesin.schule.berlin.de,http://www.aziz-nesin-schule.de,Hauptstandort,Urbanstr. 15,10961,52.49312,13.40611
02G34,02G34,Jane-Goodall-Grundschule,grundschule,green,sekretariat@jane-goodall.schule.berlin.de,http://www.jane-goodall-grundschule.de,Hauptstandort,Scharnweberstr. 19,10247,52.51279,13.46783
02G35,02G35a,Rosa-Parks-Grundschule,grundschule,green,mail@rosa-parks-grundschule.de,http://www.rosa-parks-grundschule.de,Hauptstandort,Reichenberger Str. 65,10999,52.494703,13.432416
02G36,02G36a,Blumen-Grundschule,grundschule,green,buero@36-grundschule.de,http://www.36-grundschule.de,Hauptstandort,Andreasstr. 52,10243,52.516383,13.431463
02G36,02G36c,Blumen-Grundschule,grundschule,green,,,Filiale,Singerstraße 87,10243,52.515704,13.429960
02K01,02K01,Ellen-Key-Schule,iss,beige,sek@e.key-os.schule-berlin-fk.de,http://www.eko-online.net,Hauptstandort,Rüdersdorfer Str. 20-28,10243,52.5152,13.43689
02K02,02K02,Carl-von-Ossietzky-Schule (Gemeinschaftsschule),gemeinschaft,lightgreen,sekretariat@cvo-berlin.de,http://www.cvo-berlin.de,Hauptstandort,Blücherstr. 46,10961,52.491647,13.404491
02K03,02K03a,Hector-Peterson-Schule,iss,beige,sekretariat@hps-berlin.schule,http://www.hps-berlin.schule,Hauptstandort,Tempelhofer Ufer 15,10963,52.49832,13.3841
02K04,02K04,Lina-Morgenstern-Schule (Gemeinschaftsschule),gemeinschaft,lightgreen,schulleitung@lmg.schule.berlin.de,http://lina-morgenstern-gemeinschaftsschule.de,Hauptstandort,Gneisenaustr. 7,10961,52.49178,13.38971
02K05,02K05,Schule am Königstor (Integrierte Sekundarschule),iss,beige,sek@koenigstor-os.schule-berlin-fk.de,www.schule-am-koenigstor.de,Hauptstandort,Weinstr. 3,10249,52.525666,13.425987
02K06,02K06,Emanuel-Lasker-Schule,iss,beige,sekretariat@els.schule,http://www.els.schule,Hauptstandort,Modersohnstr. 53,10245,52.50277,13.45729
02K07,02K07,Georg-Weerth-Schule,iss,beige,info@georg-weerth-schule.de,http://www.georg-weerth-schule.de,Hauptstandort,Eckertstr. 16,10249,52.518996,13.450401
02K08,02K08a,Refik-Veseli-Schule (Integrierte Sekundarschule),iss,beige,sekretariat@refik-veseli-schule.eu,http://www.schule-skalitzer.de,Hauptstandort,Skalitzer Str. 55,10997,52.499022,13.435697
02K08,02K08b,Refik-Veseli-Schule (Integrierte Sekundarschule),iss,beige,,,Filiale,,,,
02K09,02K09,Albrecht-von-Graefe-Schule (Integrierte Sekundarschule),iss,beige,sekretariat@graefemail.de,http://www.albrecht-von-graefe-schule.de,Hauptstandort,Graefestr. 85-88,10967,52.494205,13.418709
02K10,02K10,Ferdinand-Freiligrath-Schule (Integrierte Sekundarschule),iss,beige,sekretariat@ferdinand-freiligrath-schule.de,http://www.ferdinand-freiligrath-schule.de,Hauptstandort,Bergmannstr. 64,10961,52.488798,13.40149
02S01,02S01,Temple-Grandin-Schule,sonderpaedagogik,pink,Schulleitung@temple-grandin.schule.berlin.de,http://www.temple-grandin-schule.de,Hauptstandort,Lasdehner Str. 19,10243,52.514599,13.449366
02S02,02S02,Gustav-Meyer-Schule,sonderpaedagogik,pink,02S02@02S02.schule.berlin.de,,Hauptstandort,Kohlfurter Str. 22,10999,52.497102,13.416721
02S03,02S03,Margarethe-von-Witzleben-Schule,sonderpaedagogik,pink,schulleitung@witzleben.schule.berlin.de,http://www.witzleben-schule.de,Hauptstandort,Palisadenstr. 76-77,10243,52.51984,13.4346
02S06,02S06,Liebmann-Schule,sonderpaedagogik,pink,02S06@02S06.schule.berlin.de,,Hauptstandort,Friedrichstr. 13,10969,52.501885,13.391531
02Y01,02Y01,Andreas-Gymnasium,gymnasium,orange,sekretariat@andreas.schule.berlin.de,http://www.andreas-schule.org,Hauptstandort,Koppenstr. 76,10243,52.514039,13.434606
02Y03,02Y03,Heinrich-Hertz-Gymnasium,gymnasium,orange,Sek@H.Hertz-OS.Schule-Berlin-FK.de,http://www.hhgym.de,Hauptstandort,Rigaer Str. 81-82,10247,52.51695,13.46306
02Y04,02Y04,Georg-Friedrich-Händel-Gymnasium,gymnasium,orange,sekretariat@haendelgym.de,http://www.haendelgym.de,Hauptstandort,Frankfurter Allee 6A,10247,52.515331,13.455796
02Y05,02Y05,Dathe-Gymnasium,gymnasium,orange,sek@dathe-gymnasium.de,http://www.dathe-gymnasium.de,Hauptstandort,Helsingforser Str. 11-13,10243,52.510001,13.445399
02Y06,02Y06,Leibniz-Gymnasium,gymnasium,orange,sekretariat@leibnizschule-berlin.de,http://www.leibnizschule-berlin.de,Hauptstandort,Schleiermacherstr. 23,10961,52.48978,13.39747
02Y07,02Y07a,Robert-Koch-Gymnasium,gymnasium,orange,Koch-Gymnasium@web.de,http://www.Robert-Koch-Oberschule.de,Hauptstandort,Dieffenbachstr. 60,10967,52.493088,13.415334
02Y08,02Y08a,Hermann-Hesse-Gymnasium,gymnasium,orange,kontakt@hesse-kreuzberg.de,http://www.hesse-kreuzberg.de,Hauptstandort,Böckhstr. 16,10967,52.493579,13.419151
03B02,03B02,Berufliche Schule für Sozialwesen Pankow,osz,black,sekretariat@schule-sozialwesen-pankow.de,http://www.schule-sozialwesen-pankow.de,Hauptstandort,Erbeskopfweg 6-10,13158,52.59409,13.40031
03B04,03B04a,Brillat-Savarin-Schule (OSZ Gastgewerbe),osz,black,sekretariat@osz-gastgewerbe.de,https://www.osz-gastgewerbe.de,Hauptstandort,Buschallee 23a,13088,52.55292,13.4757
03B04,03B04b,Brillat-Savarin-Schule (OSZ Gastgewerbe),osz,black,,,Filiale,Darßer Str. 97,13051,52.564826,13.49252
03B06,03B06,Konrad-Zuse-Schule,osz,black,sekretariat@kzsb.de,http://www.konrad-zuse-schule-berlin.de,Hauptstandort,Hermann-Hesse-Str. 34-36,13156,52.579347,13.3956766
03B07,03B07a,Elinor-Ostrom-Schule (OSZ Bürowirtschaft und Dienstleistungen),osz,black,info@oszeos.de,http://www.oszeos.de,Hauptstandort,Mandelstr. 6-8,10409,52.54575,13.44136
03B07,03B07b,Elinor-Ostrom-Schule (OSZ Bürowirtschaft und Dienstleistungen),osz,black,,,Filiale,Pappelallee 30-31,10437,52.545513,13.417528
03B07,03B07c,Elinor-Ostrom-Schule (OSZ Bürowirtschaft und Dienstleistungen),osz,black,,,Filiale,Driesener Str. 22,10439,52.552128,13.405720
03B08,03B08,Staatliche Ballettschule Berlin und Schule für Artistik,osz,black,schulleitung@ballettschule-berlin.de,http://www.ballettschule-berlin.de/,Hauptstandort,Erich-Weinert-Str. 103,10409,52.546089,13.435337
03B10,03B10,"Max-Bill-Schule (OSZ Planen, Bauen, Gestalten)",osz,black,info@max-bill-schule.de,https://www.max-bill-schule.net,Hauptstandort,Gustav-Adolf-Str. 66,13086,52.5594133,13.4483848
03G01,03G01,Schule am Hamburger Platz (Grundschule),grundschule,green,info@schule-am-hamburger-platz.de,http://www.schule-am-hamburger-platz.de,Hauptstandort,Gustav-Adolf-Str. 21,13086,52.55381,13.43681
03G02,03G02,Heinrich-Roller-Grundschule,grundschule,green,sekretariat@roller.schule.berlin.de,http://www.Heinrich-Roller-Grundschule.de,Hauptstandort,Heinrich-Roller-Str. 18,10405,52.53064,13.42364
03G03,03G03,Grundschule am Kollwitzplatz,grundschule,green,Sekretariat@gsak.schule.berlin.de,http://www.gs-am-Kollwitzplatz.de,Hauptstandort,Knaackstr. 67,10435,52.53768,13.41489
03G04,03G04,Grundschule an der Marie,grundschule,green,Sekretariat@marie.schule.berlin.de,http://www.schule-an-der-Marie.de,Hauptstandort,Christburger Str. 7,10405,52.536148,13.42559
03G05,03G05,Homer-Grundschule,grundschule,green,post@homergs.de,http://www.homer-grundschule.de,Hauptstandort,Pasteurstr. 10-12,10407,52.53371,13.43237
03G06,03G06,Bötzow-Grundschule,grundschule,green,info@boetzow-grundschule.de,http://www.boetzow-grundschule.de,Hauptstandort,John-Schehr-Str. 38,10407,52.535104,13.439793
03G08,03G08,Grundschule am Planetarium,grundschule,green,03G08@03G08.schule.berlin.de,http://www.gsap.de,Hauptstandort,Ella-Kay-Str. 47,10405,52.54145,13.43118
03G09,03G09,Thomas-Mann-Grundschule,grundschule,green,03g09@03g09.schule.berlin.de,http://www.thomas-mann-grundschule.de,Hauptstandort,Greifenhagener Str. 58-59,10437,52.54663,13.41479
03G10,03G10,Grundschule am Hohen Feld,grundschule,green,sekretariat@grundschule-amhohenfeld.de,http://grundschule-amhohenfeld.de,Hauptstandort,Bedeweg 1,13125,52.61492,13.49606
03G11,03G11,Schule am Falkplatz (Grundschule),grundschule,green,schulleiterin@schule-am-falkplatz.berlin,http://www.schule-am-falkplatz.berlin,Hauptstandort,Gleimstr. 49,10437,52.54749,13.40538
03G12,03G12,Paul-Lincke-Grundschule,grundschule,green,paul-lincke-grundschule@gmx.de,,Hauptstandort,Pieskower Weg 39,10409,52.54129,13.44553
03G13,03G13,Rudolf-Dörrier-Grundschule,grundschule,green,info@doerrier-grundschule.de,,Hauptstandort,Kastanienallee 59,13158,52.59125,13.37612
03G14,03G14,Bornholmer Grundschule,grundschule,green,bornholmer14@t-online.de,http://www.bornholmer-grundschule.de,Hauptstandort,Ibsenstr. 17,10439,52.55572,13.40768
03G15,03G15,Schule am Senefelderplatz,grundschule,green,03g15@03g15.schule.berlin.de,http://www.schule-am-senefelderplatz.de,Hauptstandort,Schönhauser Allee 165,10435,52.534675,13.411884
03G16,03G16,Grundschule am Teutoburger Platz,grundschule,green,schulleitung@teute.schule.berlin.de,http://www.schule-am-teute.de,Hauptstandort,Templiner Str. 1-3,10119,52.533635,13.408651
03G17,03G17a,Grundschule am Weißen See,grundschule,green,03G17@03G17.schule.berlin.de,,Hauptstandort,Amalienstr. 6,13086,52.555294,13.457004
03G17,03G17b,Grundschule am Weißen See,grundschule,green,,,Filiale,Falkenberger Straße 31,13088,52.554136,13.476592
03G18,03G18a,Picasso-Grundschule,grundschule,green,sekretariat@picasso.schule.berlin.de,http://www.picasso-grundschule.de,Hauptstandort,Gounodstr. 71,13088,52.547032,13.460359
03G18,03G18b,Picasso-Grundschule,grundschule,green,,,Filiale,Smetanastr. 27,13088,52.547689,13.460009
03G20,03G20,Grundschule im Moselviertel,grundschule,green,grundschule-im-moselviertel@gmx.de,http://www.moselschule.de,Hauptstandort,Brodenbacher Weg 31,13088,52.559028,13.475454
03G21,03G21,Grundschule unter den Bäumen,grundschule,green,gudbaeumen@t-online.de,http://www.gudbaeumen.de,Hauptstandort,Alt-Blankenburg 26,13129,52.592262,13.454422
03G22,03G22,Grundschule am Wasserturm,grundschule,green,gsamwasserturm@freenet.de,http://www.grundschule-am-wasserturm.com/,Hauptstandort,Tino-Schwierzina-Str. 66,13089,52.56546,13.43664
03G23,03G23,Grundschule Alt-Karow,grundschule,green,grundschule-alt-karow@gmx.de,http://www.grundschule-alt-karow.de,Hauptstandort,Bahnhofstr. 32,13125,52.609682,13.479743
03G24,03G24,Grundschule im Panketal,grundschule,green,gs-im-panketal@gmx.de,http://www.grundschule-im-panketal.de,Hauptstandort,Achillesstr. 31,13125,52.61986,13.486729
03G25,03G25,Carl-Humann-Grundschule,grundschule,green,humann-grundschule@gmx.de,,Hauptstandort,Scherenbergstr. 7,10439,52.55101,13.42173
03G26,03G26,Arnold-Zweig-Grundschule,grundschule,green,sekretariat@arnold-zweig.schule.berlin.de,http://www.arnold-zweig-grundschule.com,Hauptstandort,Wollankstr. 131,13187,52.56868,13.40012
03G27,03G27,Elizabeth-Shaw-Grundschule,grundschule,green,info@shaw-grundschule.de,http://shaw-grundschule.de,Hauptstandort,Grunowstr. 17,13187,52.56831,13.41044
03G28,03G28a,Hasengrund-Schule (Grundschule),grundschule,green,sekretariat@hasengrund.schule.berlin.de,http://www.hasengrund.edupage.org,Hauptstandort,Charlottenstr. 19,13156,52.59089,13.410577
03G28,03G28b,Hasengrund-Schule (Grundschule),grundschule,green,,,Filiale,Hermann-Hesse-Str. 48-52,13156,52.577864,13.394298
03G29,03G29,Grundschule Am Sandhaus,grundschule,green,sandhaus-gs@t-online.de,http://www.sandhaus-schule.cidsnet.de,Hauptstandort,Wiltbergstr. 37-39,13125,52.637343,13.490967
03G32,03G32,Grundschule an den Buchen,grundschule,green,sekretariat-gsbuchen@gmx.de,http://www.gs-buchen.de,Hauptstandort,Wilhelm-Wolff-Str. 19,13156,52.579207,13.394536
03G33,03G33a,Jeanne-Barez-Schule,grundschule,green,sekretariat@jeaba.de,http://www.jeanne-barez-schule.de,Hauptstandort,Hauptstr. 66,13127,52.60417,13.43415
03G33,03G33b,Jeanne-Barez-Schule,grundschule,green,,,Filiale,Berliner Straße 19,13127,52.600324,13.431823
03G34,03G34,Mendel-Grundschule,grundschule,green,mendel-schule@t-online.de,,Hauptstandort,Stiftsweg 3,13187,52.573478,13.416325
03G35,03G35,Platanengrundschule,grundschule,green,platanengrundschule@gmx.de,,Hauptstandort,Hauptstr. 20,13159,52.618258,13.389549
03G36,03G36a,Elisabeth-Christinen-Grundschule,grundschule,green,ecg.03g36@t-online.de,ecg.schule,Hauptstandort,Lindenberger Str. 12,13156,52.582736,13.417533
03G36,03G36b,Elisabeth-Christinen-Grundschule,grundschule,green,,,Filiale,Buchholzer Str. 3,13156,52.582633,13.407530
03G37,03G37,Klecks-Grundschule,grundschule,green,sekretariat@klecks-grund.schule.berlin.de,,Hauptstandort,Brixener Str. 40,13187,52.55989,13.40756
03G38,03G38a,Grundschule im Blumenviertel,grundschule,green,Grundschule_im_Blumenviertel@t-online.de,http://www.grundschule-im-blumenviertel.de,Hauptstandort,Syringenplatz 30,10407,52.535141,13.458074
03G38,03G38b,Grundschule im Blumenviertel,grundschule,green,,,Filiale,,,,
03G39,03G39,Grundschule Wolkenstein,grundschule,green,sekretariat@wolkenstein.schule.berlin.de,http://www.gs-wolkenstein.de,Hauptstandort,Neumannstr. 65,13189,52.56527,13.42024
03G40,03G40,Schule am Birkenhof,grundschule,green,info@schule-am-birkenhof.de,http://www.schule-am-birkenhof.de,Hauptstandort,Arnouxstr. 18,13127,52.60791,13.42388
03G41,03G41,Trelleborg-Schule,grundschule,green,trelleborg-schule@t-online.de,http://www.trelleborg-schule.de,Hauptstandort,Eschengraben 40,13189,52.556012,13.421818
03G43,03G43,Grundschule Wilhelmsruh,grundschule,green,sekretariat@grundschule-wilhelmsruh.de,http://www.grundschule-wilhelmsruh.de,Hauptstandort,Lessingstr. 44,13158,52.5903,13.36421
03G44,03G44,Georg-Zacharias-Grundschule,grundschule,green,44.Grundschule-Pankow@web.de,http://44gspankow.be.schule.de,Hauptstandort,Sulzfelder Str. 15,13088,52.55219,13.47502
03G45,03G45,Grundschule im Hofgarten,grundschule,green,sekretariat@hofgarten.schule.berlin.de,http://www.grundschuleimhofgarten.de,Hauptstandort,Danziger Str. 50,10435,52.53921,13.41918
03G46,03G46,Grundschule im Eliashof,grundschule,green,sekretariat@03g46.schule.berlin.de,,Hauptstandort,Senefelderstr. 6,10437,52.540786,13.422734
03G47,03G47,Schule an der Strauchwiese,grundschule,green,info@schuleanderstrauchwiese.de,http://www.schuleanderstrauchwiese.de,Hauptstandort,Mendelstr. 54,13187,52.57805,13.41782
03G48,03G48,Neugründung,grundschule,green,,,Hauptstandort,Conrad-Blenkle-Str. 20,10407,52.530214,13.447295
03K01,03K01a,Kurt-Schwitters-Schule,iss,beige,ksoberlin.cids@t-online.de,,Hauptstandort,Greifswalder Str. 25,10405,52.5314,13.42807
03K01,03K01b,Kurt-Schwitters-Schule,iss,beige,,,Filiale,Bötzowstraße 11,10407,52.529939,13.431518
03K02,03K02,Kurt-Tucholsky-Schule,iss,beige,sekretariat1@kto-berlin.de,http://www.kto-berlin.de,Hauptstandort,Neumannstr. 9-11,13189,52.55812,13.42333
03K03,03K03,Konrad-Duden-Schule,iss,beige,konrad-duden-oberschule@gmx.de,http://www.isskd.de,Hauptstandort,Rolandstr. 35,13156,52.58183,13.41744
03K04,03K04,Gustave-Eiffel-Schule,iss,beige,sekretariat@03K04.schule.berlin.de,http://www.gustave-eiffel-schule.de/,Hauptstandort,Hanns-Eisler-Str. 78-80,10409,52.540662,13.44844
03K05,03K05,Heinz-Brandt-Schule,iss,beige,kontakt@heinz-brandt-schule.de,http://www.heinz-brandt-schule.de,Hauptstandort,Langhansstr. 120,13086,52.551192,13.441808
03K06,03K06,Reinhold-Burger-Schule,iss,beige,Sekretariat@03k06.schule.berlin.de,http://www.reinhold-burger-schule.de,Hauptstandort,Neue Schönholzer Str. 32,13187,52.56838,13.40303
03K07,03K07,Tesla-Schule (Gemeinschaftsschule),gemeinschaft,lightgreen,sekretariat@tesla-schule.de,http://www.tesla-schule.de,Hauptstandort,Rudi-Arndt-Str. 18,10407,52.529086,13.446061
03K08,03K08,Hagenbeck-Schule,iss,beige,info@hagenbeck-schule.de,http://www.hagenbeck-schule.de,Hauptstandort,Gustav-Adolf-Str. 60,13086,52.55879,13.44729
03K09,03K09,Janusz-Korczak-Schule,iss,beige,Janusz-Korczak-OR@web.de,,Hauptstandort,Dolomitenstr. 94,13187,52.562908,13.407559
03K10,03K10,Hufeland-Schule,iss,beige,sekretariat@hufelandschule.berlin,http://www.hufelandschule.berlin,Hauptstandort,Walter-Friedrich-Str. 16-18,13125,52.63325,13.49373
03K11,03K11,Wilhelm-von-Humboldt-Gemeinschaftsschule,gemeinschaft,lightgreen,sekretariat@wvh-gemeinschaftsschule.de,http://wvh-gemeinschaftsschule.de,Hauptstandort,Erich-Weinert-Str. 70,10439,52.54845,13.42476
03S03,03S03,Helene-Haeusler-Schule,sonderpaedagogik,pink,sekretariat@helene-haeusler-schule.de,http://www.helene-haeusler-schule.de,Hauptstandort,Mendelssohnstr. 10,10405,52.5267,13.42002
03S06,03S06,Schule am Birkenhof,sonderpaedagogik,pink,info@schule-am-birkenhof.de,http://www.schule-am-birkenhof.de,Hauptstandort,Arnouxstraße 18,13127,52.607855,13.424033
03S07,03S07,Ausweichstandort für Schulen mit Baumaßnahmen,sonderpaedagogik,pink,,,Hauptstandort,Hermann-Hesse-Str. 48,13156,52.577960,13.394423
03S08,03S08a,Panke-Schule,sonderpaedagogik,pink,kontakt@panke-schule.de,http://www.panke-schule.de,Hauptstandort,Galenusstr. 64,13187,52.57877,13.41699
03S08,03S08c,Panke-Schule,sonderpaedagogik,pink,,,Filiale,Klaustaler Straße 21A,13187,52.578561,13.419472
03S09,03S09,Schule an der Strauchwiese,sonderpaedagogik,pink,info@schuleanderstrauchwiese.de,http://www.schuleanderstrauchwiese.de,Hauptstandort,Mendelstr. 54,13187,52.578340,13.417743
03S10,03S10a,Marianne-Buggenhagen-Schule,sonderpaedagogik,pink,info.mbs-berlin@t-online.de,,Hauptstandort,Ernst-Busch-Str. 29,13125,52.62953,13.49149
03S10,03S10b,Marianne-Buggenhagen-Schule,sonderpaedagogik,pink,,,Klinikschule/Haus 211,Schwanebecker Chaussee 50,13125,52.633192,13.508962
03Y03,03Y03,Käthe-Kollwitz-Gymnasium,gymnasium,orange,sekretariat@kkos.net,http://www.kkos.net,Hauptstandort,Dunckerstr. 65-66,10439,52.5458,13.42271
03Y04,03Y04,Heinrich-Schliemann-Gymnasium,gymnasium,orange,schulleitung@hsg-berlin.de,http://www.hsg-berlin.de,Hauptstandort,Dunckerstr. 64,10439,52.54663,13.42365
03Y08,03Y08,Carl-von-Ossietzky-Gymnasium,gymnasium,orange,sekretariat@cvo.berlin,https://cvo.berlin,Hauptstandort,Görschstr. 42-44,13187,52.566429,13.40007
03Y10,03Y10a,Rosa-Luxemburg-Gymnasium,gymnasium,orange,sekretariat@rlo-berlin.de,http://www.rlo-berlin.de,Hauptstandort,Kissingenstr. 12,13189,52.56669,13.41948
03Y10,03Y10b,Rosa-Luxemburg-Gymnasium,gymnasium,orange,,,Filiale,Borkumstraße 13,13189,52.565021,13.418947
03Y13,03Y13a,Felix-Mendelssohn-Bartholdy-Gymnasium,gymnasium,orange,sekretariat@fmbg.schule.berlin.de,http://www.fmbg-berlin.de,Hauptstandort,Eugen-Schönhaar-Str. 18,10407,52.537087,13.437857
03Y13,03Y13b,Felix-Mendelssohn-Bartholdy-Gymnasium,gymnasium,orange,,,Filiale,Pasteurstr. 7-11,10407,52.534084,13.432526
03Y14,03Y14a,Primo-Levi-Gymnasium,gymnasium,orange,sekretariat@plg-berlin.de,http://www.plg-berlin.de,Hauptstandort,Pistoriusstr. 133,13086,52.5516,13.45369
03Y14,03Y14b,Primo-Levi-Gymnasium,gymnasium,orange,,,Filiale,Woelckpromenade 38,13086,52.553637,13.453551
03Y15,03Y15a,Max-Delbrück-Gymnasium,gymnasium,orange,sekretariat@max-delbrueck-gymnasium.de,https://max-delbrueck-gymnasium.de/,Hauptstandort,Kuckhoffstr. 2-22,13156,52.583884,13.402118
03Y15,03Y15b,Max-Delbrück-Gymnasium,gymnasium,orange,,,Filiale,Dietzgenstraße 47,13156,52.584750,13.401286
03Y16,03Y16,Robert-Havemann-Gymnasium,gymnasium,orange,schulleitung@rhgym.de,http://www.robert-havemann-gymnasium.de,Hauptstandort,Achillesstr. 79,13125,52.615393,13.494218
03Y17,03Y17,Gymnasium am Europasportpark,gymnasium,orange,sekretariat@gesp-berlin.de,http://www.gesp-berlin.de,Hauptstandort,Conrad-Blenkle-Str. 34,10407,52.534329,13.447008
04A04,04A04,Charlotte-Wolff-Kolleg,kolleg,white,Leitung@charlotte-wolff-kolleg.de,http://www.charlotte-wolff-kolleg.de,Hauptstandort,Pestalozzistraße 40/41,10627,52.508088,13.303451
04A06,04A06,Peter-A.-Silbermann-Schule,kolleg,white,info@abendgymnasium.de,http://www.abendgymnasium.de,Hauptstandort,Blissestraße 22,10713,52.484770,13.319447
04B01,04B01,Loschmidt-Oberschule,osz,black,zentrale@loschmidt-oberschule.de,http://www.loschmidt-oberschule.de,Hauptstandort,Loschmidtstr. 19,10587,52.51718,13.31306
04B02,04B02,Hans-Litten-Schule (OSZ Recht),osz,black,leitung@hans-litten-schule.de,http://www.hans-litten-schule.de,Hauptstandort,Danckelmannstr. 26-28,14059,52.5118597,13.2911811
04B03,04B03,OSZ Kraftfahrzeugtechnik,osz,black,info@osz-kfz.de,http://www.osz-kfz.de,Hauptstandort,Gierkeplatz 1-3,10585,52.5165788,13.3018751
04B04,04B04,Ruth-Cohn-Schule (OSZ Sozialwesen),osz,black,04b04@osz-rcs.de,http://www.osz-ruth-cohn.de,Hauptstandort,Bismarckstr. 20,10625,52.5123033,13.3127686
04B05,04B05a,Anna-Freud-Schule (OSZ Sozialwesen),osz,black,post@anna-freud-osz.de,http://www.anna-freud-osz.de,Hauptstandort,Halemweg 22,13627,52.53785,13.28699
04B05,04B05b,Anna-Freud-Schule (OSZ Sozialwesen),osz,black,,,Filiale,Klixstr. 7,10823,52.48907,13.3513365
04B06,04B06a,Leopold-Ullstein-Schule (OSZ Recht undWirtschaft),osz,black,info@leopold-ullstein-schule.de,http://www.leopold-ullstein-schule.de,Hauptstandort,Prinzregentenstr. 32,10715,52.4835614,13.33269
04B06,04B06b,Leopold-Ullstein-Schule (OSZ Recht undWirtschaft),osz,black,,,Filiale,Prinzregentenstr. 60,10715,52.4823755,13.3328756
04B07,04B07,OSZ Körperpflege,osz,black,info@osz-koerperpflege.de,http://www.osz-koerperpflege.de,Hauptstandort,Schillerstr. 120,10625,52.510542,13.3193511
04B08,04B08,Kläre-Bloch-Schule,osz,black,buero@klaere-bloch-schule.de,http://www.klaere-bloch-schule.de,Hauptstandort,Prinzregentenstr. 60,10715,52.48169,13.3331999
04G01,04G01,Eichendorff-Grundschule,grundschule,green,sekretariat@eichendorff.schule.berlin.de,http://www.eichendorff-grundschule-berlin.de,Hauptstandort,Goethestr. 19,10625,52.50921,13.31305
04G02,04G02,Lietzensee-Grundschule,grundschule,green,sekretariat@lietzenseeschule.schule.berlin.de,http://www.lietzenseeschule.de,Hauptstandort,Witzlebenstr. 34,14057,52.5094,13.29502
04G04,04G04,Joan-Miró-Grundschule,grundschule,green,mail@joan-miro-grundschule.de,http://www.joan-miro-grundschule.de,Hauptstandort,Bleibtreustr. 43,10623,52.50357,13.32014
04G05,04G05,Dietrich-Bonhoeffer-Grundschule,grundschule,green,Sekretariat@dibog.schule.berlin.de,,Hauptstandort,Spandauer Damm 205-215,14050,52.521371,13.26202
04G06,04G06,Wald-Grundschule,grundschule,green,sekretariat@wald-grundschule.de,http://wald-grundschule.de,Hauptstandort,Waldschulallee 83-93,14055,52.50259,13.259
04G07,04G07,Ludwig-Cauer-Grundschule,grundschule,green,04G07@04G07.schule.berlin.de,http://www.cauerschule.de,Hauptstandort,Cauerstr. 36-38,10587,52.515043,13.315123
04G08,04G08,Mierendorff-Grundschule,grundschule,green,schulleitung@mierendorff-schule.de,http://www.mierendorff-grundschule.de,Hauptstandort,Mierendorffstr. 20-24,10589,52.523791,13.303338
04G09,04G09,Erwin-von-Witzleben-Grundschule,grundschule,green,erwin-von-witzleben-gs@t-online.de,,Hauptstandort,Halemweg 34,13627,52.53967,13.2873
04G11,04G11,Helmuth-James-von-Moltke-Grundschule,grundschule,green,sekretariat@moltke.grundschule.berlin.de,http://www.moltke-grundschule.de,Hauptstandort,Heckerdamm 221,13627,52.53903,13.30104
04G12,04G12,Schinkel-Grundschule,grundschule,green,esgbuero@t-online.de,,Hauptstandort,Nithackstr. 8,10585,52.51782,13.29876
04G13,04G13,Nehring-Grundschule,grundschule,green,info@nehring-grundschule.de,http://www.nehring-grundschule.de,Hauptstandort,Nehringstr. 9-10,14059,52.514893,13.293865
04G14,04G14a,Reinhold-Otto-Grundschule,grundschule,green,04G14@04G14.schule.berlin.de,http://www.reinhold-otto.de,Hauptstandort,Leistikowstr. 7-8,14050,52.513329,13.268399
04G15,04G15,Charles-Dickens-Grundschule,grundschule,green,sekretariat@charles-dickens.schule.berlin.de,http://www.charles-dickens-gs.de,Hauptstandort,Dickensweg 15,14055,52.508946,13.236971
04G17,04G17,Johann-Peter-Hebel-Grundschule,grundschule,green,verwaltung@hebelschule-berlin.de,http://www.hebelschule-berlin.de,Hauptstandort,Emser Str. 50,10719,52.49541,13.31942
04G18,04G18,Ernst-Habermann-Grundschule,grundschule,green,schule@ernst-habermann.de,http://www.ernst-habermann.de,Hauptstandort,Prinzregentenstr. 33-34,10715,52.48328,13.33269
04G19,04G19,Grundschule am Rüdesheimer Platz,grundschule,green,Sekretariat@garp.schule.berlin.de,http://www.garp-schule.de,Hauptstandort,Rüdesheimer Str. 24-30,14197,52.47113,13.31312
04G20,04G20,Katharina-Heinroth-Grundschule,grundschule,green,sekretariat@katharina-heinroth-grundschule.de,http://katharina-heinroth-grundschule.de,Hauptstandort,Münstersche Str. 15-17,10709,52.494,13.30619
04G21,04G21,Halensee-Grundschule,grundschule,green,sekretariat@halensee.schule.berlin.de,http://www.Halensee-Grundschule.de,Hauptstandort,Joachim-Friedrich-Str. 35-36,10711,52.49993,13.2961
04G22,04G22a,Grunewald-Grundschule,grundschule,green,sekretariat@grunewald.schule.berlin.de,http://www.grunewald-grundschule.de,Hauptstandort,Delbrückstr. 20A,14193,52.484525,13.281094
04G23,04G23,Alt-Schmargendorf-Grundschule,grundschule,green,schulleitung@asg.schule.berlin.de,http://www.alt-schmargendorf-grundschule.de,Hauptstandort,Reichenhaller Str. 8,14199,52.477085,13.293432
04G24,04G24,Carl-Orff-Grundschule,grundschule,green,sekretariat@carl-orff-gs.de,http://www.carl-orff-gs.de,Hauptstandort,Berkaer Str. 9-10,14199,52.47841,13.28709
04G25,04G25,Cecilien-Schule (Grundschule),grundschule,green,04G25@04G25.schule.berlin.de,http://www.cecilien-schule.de,Hauptstandort,Nikolsburger Platz 5,10717,52.49331,13.32769
04G26,04G26,Birger-Forell-Grundschule,grundschule,green,post@birger-forell-grundschule.de,http://www.birger-forell-grundschule.de,Hauptstandort,Koblenzer Str. 22-24,10715,52.480726,13.321893
04G27,04G27,Judith-Kerr-Grundschule,grundschule,green,verwaltung@04G27.schule.berlin.de,http://www.judith-kerr-grundschule.de,Hauptstandort,Friedrichshaller Str. 13,14199,52.476131,13.293228
04K02,04K02,Friedensburg-Schule,iss,beige,sekretariat@fosbe.de,http://www.fosbe.de,Hauptstandort,Goethestr. 8-9,10623,52.50908,13.32082
04K03,04K03,Robert-Jungk-Schule,iss,beige,schulleitung@r-j-o.de,http://www.Robert-Jungk-Oberschule.de,Hauptstandort,Sächsische Str. 58,10707,52.49448,13.31872
04K04,04K04,Nelson-Mandela-Schule,iss,beige,katja.sajid@nelson-mandela-schule.net,http://www.nelson-mandela-school.net,,Pfalzburger Straße 23,10719,52.490921,13.321079
04K05,04K05a,Paula-Fürst-Schule (Gemeinschaftsschule),gemeinschaft,lightgreen,sekretariat@paula-fuerst.schule.berlin.de,http://www.paula-fuerst-gemeinschaftsschule.de,Hauptstandort,Sybelstr. 20-21,10629,52.50227,13.30194
04K05,04K05b,Paula-Fürst-Schule (Gemeinschaftsschule),gemeinschaft,lightgreen,,,Filiale,Nehringstraße 9,14059,52.514475,13.292506
04K06,04K06,Schule am Schloss (Integrierte Sekundarschule),iss,beige,sekretariat@schuleamschloss.de,http://www.schuleamschloss.de,Hauptstandort,Schloßstr. 55A,14059,52.5161,13.29812
04K07,04K07,Integrierte Sekundarschule Wilmersdorf,iss,beige,kontakt@sekundarschule-wilmersdorf.de,http://www.sekundarschule-wilmersdorf.de,Hauptstandort,Kranzer Str. 3,14199,52.482808,13.296098
04K08,04K08,Peter-Ustinov-Schule,iss,beige,sekretariat@peter-ustinov-schule.de,http://www.peter-ustinov-schule.de,Hauptstandort,Kuno-Fischer-Str. 22-26,14057,52.505241,13.290548
04K09,04K09,Otto-von-Guericke-Schule (Integrierte Sekundarschule),iss,beige,kontakt@ovgos.de,http://www.ovgos.de,Hauptstandort,Eisenzahnstr. 47-48,10709,52.49276,13.30516
04K10,04K10,Wangari-Maathai-Internationale-Schule,iss,beige,secretary@wangari-maathai-schule.de,http://wangari-maathai-schule.jimdofree.com,,Babelsberger Str. 24,10715,52.482373,13.335080
04S02,04S02,Arno-Fuchs-Schule,sonderpaedagogik,pink,r.gehret@arno-fuchs-schule.de,http://www.arno-fuchs-schule.de,Hauptstandort,Richard-Wagner-Str. 30,10585,52.51489,13.30717
04S04,04S04,Reinfelder-Schule,sonderpaedagogik,pink,post@reinfelder-schule.de,http://www.reinfelder-schule.de,Hauptstandort,Maikäferpfad 30,14055,52.49693,13.26373
04S05,04S05,Ernst-Adolf-Eschke-Schule für Gehörlose,sonderpaedagogik,pink,post@eaeschule.de,http://www.eschke-schule.de,Hauptstandort,Waldschulallee 29,14055,52.4989,13.26508
04S06,04S06,Finkenkrug-Schule,sonderpaedagogik,pink,kontakt@finkenkrug-schule.de,,Hauptstandort,Mannheimer Str. 21-22,10713,52.48448,13.31606
04S07,04S07a,Comenius-Schule,sonderpaedagogik,pink,schulleitung@schule-comenius.de,http://www.schule-comenius.de,Hauptstandort,Gieselerstr. 4,10713,52.488639,13.318353
04Y01,04Y01,Schiller-Gymnasium,gymnasium,orange,sekretariat@sgym.schule.berlin.de,http://www.sgym.de,Hauptstandort,Schillerstr. 125-127,10625,52.50993,13.321596
04Y02,04Y02a,Wald-Gymnasium,gymnasium,orange,waldgymnasium@gmx.de,http://www.waldgymnasium.de,Hauptstandort,Waldschulallee 95,14055,52.50343,13.25701
04Y03,04Y03,Sophie-Charlotte-Gymnasium,gymnasium,orange,sekretariat@scg.schule.berlin.de,http://www.scgberlin.de,Hauptstandort,Sybelstr. 2,10629,52.5023,13.31237
04Y04,04Y04a,Gottfried-Keller-Gymnasium,gymnasium,orange,kontakt@gks-berlin.de,http://www.gks-berlin.de,Hauptstandort,Olbersstr. 38,10589,52.52888,13.3022
04Y05,04Y05,Herder-Gymnasium,gymnasium,orange,sekretariat@herder-gymnasium.eu,http://www.herder-gymnasium.eu,Hauptstandort,Westendallee 45-46,14052,52.510663,13.257932
04Y06,04Y06,Heinz-Berggruen-Gymnasium,gymnasium,orange,info@hbgym.de,http://hbgym.de,Hauptstandort,Bayernallee 4,14052,52.51103,13.26722
04Y07,04Y07a,Friedrich-Ebert-Gymnasium,gymnasium,orange,danz@feo-berlin.de,http://feo.schule.de,Hauptstandort,Blissestr. 22,10713,52.484206,13.319593
04Y08,04Y08,Hildegard-Wegscheider-Gymnasium,gymnasium,orange,wegscheider-gymnasium@gmx.de,http://www.hwos.de,Hauptstandort,Lassenstr. 16-20,14193,52.485116,13.275931
04Y09,04Y09,Walther-Rathenau-Gymnasium,gymnasium,orange,sekretariat@wrs-berlin.de,http://www.wrs-berlin.de,Hauptstandort,Herbertstr. 2-6,14193,52.49143,13.28135
04Y10,04Y10,Marie-Curie-Gymnasium,gymnasium,orange,schulleitung@mcg-berlin.de,http://www.mcg-berlin.de,Hauptstandort,Weimarische Str. 21,10715,52.480119,13.324748
04Y11,04Y11,Goethe-Gymnasium,gymnasium,orange,info.goethe-gymnasium@t-online.de,,Hauptstandort,Gasteiner Str. 23,10717,52.48759,13.3225
05B01,05B01,"OSZ TIEM (Technische Informatik, Industrieelektronik, EnergieManagement)",osz,black,info@osztiem.de,http://www.osztiem.de,Hauptstandort,Goldbeckweg 8-14,13599,52.54416,13.2300799
05B02,05B02a,Knobelsdorff-Schule (OSZ Bautechnik I),osz,black,kontakt@knobelsdorff-schule.de,http://www.knobelsdorff-schule.de,Hauptstandort,Nonnendammallee 140-143,13599,52.5394462,13.2424093
05B02,05B02b,Knobelsdorff-Schule (OSZ Bautechnik I),osz,black,,,Filiale,Nauener Str. 13,13581,52.5342515,13.182016
05B02,05B02c,Knobelsdorff-Schule (OSZ Bautechnik I),osz,black,,,Filiale,Am Fort 48d,13591,52.5237679,13.1360718
05G01,05G01,Ernst-Ludwig-Heim-Grundschule,grundschule,green,elhg@web.de,,,Grunewaldstr. 8,13597,52.5304,13.20672
05G02,05G02,Grundschule am Eichenwald,grundschule,green,Grundschule_am_Eichenwald@t-online.de,,,Gaismannshofer Weg 2,13587,52.558423,13.199146
05G04,05G04,Klosterfeld-Grundschule,grundschule,green,05G04@05G04.schule.berlin.de,http://www.klosterfeld-grundschule.de,,Seegefelder Str. 125,13583,52.53861,13.17968
05G05,05G05,Christoph-Földerich-Grundschule,grundschule,green,foelderich-schule@t-online.de,http://www.foelleschule-berlin.de,,Földerichplatz 5,13595,52.51986,13.193276
05G06,05G06,Siegerland-Grundschule,grundschule,green,sekretariat@siegerland-schule.de,http://www.siegerland-schule.de,,Hermann-Schmidt-Weg 4,13589,52.55125,13.175203
05G07,05G07,Lynar-Grundschule,grundschule,green,info@lynar-grundschule.de,http://www.lynar-grundschule.de,,Lutherstr. 19-20,13585,52.54766,13.20683
05G08,05G08,Konkordia-Grundschule,grundschule,green,Konkordia-Grundschule@web.de,http://www.konkordia-grundschule.de,,Elsflether Weg 26,13581,52.53018,13.19202
05G10,05G10,Grundschule am Birkenhain,grundschule,green,info@grundschule-am-birkenhain.de,http://www.grundschule-am-birkenhain.de,,Seeburger Str. 59,13581,52.52596,13.180519
05G11,05G11,Robert-Reinick-Grundschule,grundschule,green,sekretariat@05g11.schule.berlin.de,http://www.robert-reinick-grundschule.de,,Jungfernheideweg 33-48,13629,52.54065,13.27277
05G12,05G12,Grundschule am Weinmeisterhorn,grundschule,green,gs.am.weinmeisterhorn@t-online.de,http://www.gsamweinmeisterhorn.schule-berlin.net,,Daberkowstr. 27,13593,52.50825,13.1742
05G13,05G13,Bernd-Ryke-Grundschule,grundschule,green,info@bernd-ryke-gs.de,http://www.bernd-ryke-gs.de,,Daumstr. 12,13599,52.54494,13.2325
05G14,05G14,Linden-Grundschule,grundschule,green,sekretariat@linden-gs.schule.berlin.de,http://www..linden-grundschule.de,,Staakener Feldstr. 6-8,13591,52.53517,13.14081
05G15,05G15,Askanier-Grundschule,grundschule,green,t.berlin@askanier-gs.de,http://www.askanier-gs.de,,Borkzeile 34,13583,52.54049,13.19242
05G16,05G16,Zeppelin-Grundschule,grundschule,green,info@zeppelin-gs.de,http://www.zeppelin-gs.de,,Heidebergplan 3-4,13591,52.5409,13.14635
05G17,05G17,Astrid-Lindgren-Grundschule,grundschule,green,sekretariat@lindgren.schule.berlin.de,http://www.lindgrenschule.de,,Südekumzeile 5,13591,52.5311,13.15652
05G18,05G18,Grundschule im Beerwinkel,grundschule,green,schulleitung@beerwinkel.de,http://www.beerwinkel.de,,Im Spektefeld 31,13589,52.549023,13.154969
05G19,05G19,Grundschule am Ritterfeld,grundschule,green,schule@ritterfeld.berlin,http://www.grundschuleamritterfeld.de,,Schallweg 31,14089,52.455239,13.138357
05G20,05G20,Carl-Schurz-Grundschule,grundschule,green,sekretariat@05g20.schule.berlin.de,http://www.carl-schurz-grundschule.de,,Hakenfelder Str. 32,13587,52.56751,13.199061
05G21,05G21,Paul-Moor-Grundschule,grundschule,green,sekretariat@paulmoor.schule,http://www.paulmoor.schule,,Adamstr. 24-25,13595,52.521,13.19029
05G22,05G22,Christian-Morgenstern-Grundschule,grundschule,green,christian-morgenstern-gs.cids@t-online.de,http://www.christian-morgenstern-grundschule.de,,Räcknitzer Steig 12,13593,52.5227,13.16816
05G23,05G23,Grundschule am Brandwerder,grundschule,green,sekretariat@brandwerder.de,http://www.brandwerder.de,,Spandauer Str. 86,13591,52.53595,13.15293
05G24,05G24,Grundschule am Windmühlenberg,grundschule,green,sekretariat@schuleamwindmuehlenberg.de,http://www.SchuleAmWindmuehlenberg.de,,Am Kinderdorf 23-37,14089,52.48547,13.17431
05G25,05G25,Grundschule am Wasserwerk,grundschule,green,schuastawa@t-online.de,,,Pionierstr. 197,13589,52.55625,13.16467
05G26,05G26,Grundschule am Amalienhof,grundschule,green,schule.amalienhof@gmail.com,http://gsamalienhof.de,,Weinmeisterhornweg 122,13593,52.51289,13.1667
05G27,05G27,Peter-Härtling-Grundschule,grundschule,green,sekretariat@peter-haertling.schule.berlin.de,http://www.peter-haertling-gs.de,,Flankenschanze 20,13585,52.543893,13.1996
05G28,05G28,Grundschule an der Pulvermühle,grundschule,green,sekretariat@gs-pulvermuehle.de,http://www.gs-pulvermuehle.de,,Grützmacherweg 7,13599,52.544061,13.228327
05G29,05G29,Mary-Poppins-Grundschule,grundschule,green,mary-poppins-grundschule@arcor.de,,,Am Flugplatz Gatow 20,14089,52.472209,13.127426
05G30,05G30,Birken-Grundschule,grundschule,green,sekretariat@05G30.schule.berlin.de,,,Hügelschanze 8-9,13585,52.54863,13.19756
05K01,05K01,Martin-Buber-Oberschule (Integrierte Sekundarschule),iss,beige,info@martin-buber-oberschule.de,http://www.martin-buber-oberschule.de,,Im Spektefeld 33,13589,52.54895,13.1565
05K02,05K02,Carlo-Schmid-Oberschule (Integrierte Sekundarschule),iss,beige,b.pobloth@carlo-schmid.schule,http://www.csoonline.de,,Lutoner Str. 15-19,13581,52.5259,13.17464
05K03,05K03,Bertolt-Brecht-Oberschule (Integrierte Sekundarschule),iss,beige,sekretariat@brecht-oberschule.de,http://www.brecht-oberschule.de,,Wilhelmstr. 10,13595,52.525308,13.192692
05K04,05K04,Heinrich-Böll-Oberschule (Integrierte Sekundarschule),iss,beige,hbo@boell-schule.de,http://www.boell-schule.de,,Am Forstacker 9-11,13587,52.565166,13.199033
05K05,05K05,B.-Traven-Gemeinschaftsschule,gemeinschaft,lightgreen,sekretariat@btg.schule.berlin.de,http://www.btg.schule,,Recklinghauser Weg 26-32,13583,52.5469,13.17403
05K06,05K06a,Wolfgang-Borchert-Schule (Integrierte Sekundarschule),iss,beige,info@borchertschule-spandau.de,http://borchertschule-spandau.de,Blumenstraße,Blumenstr. 13,13585,52.54571,13.1967
05K06,05K06b,Wolfgang-Borchert-Schule (Integrierte Sekundarschule),iss,beige,,,Borchertweg,Borchertweg 2,13585,52.543459,13.194591
05K07,05K07,Schule an der Jungfernheide (Integrierte Sekundarschule),iss,beige,info@schule-an-der-jungfernheide.de,http://www.schule-an-der-jungfernheide.de,,Lenther Steig 1-3,13629,52.53843,13.26697
05K08,05K08,Schule an der Haveldüne (Integrierte Sekundarschule),iss,beige,info@schuleanderhavelduene.de,https://havelduene.berlin/,,Jaczostr. 53-67,13595,52.51098,13.18567
05K09,05K09,Schule am Staakener Kleeblatt (Integrierte Sekundarschule),iss,beige,staakener.kleeblatt@gmail.com,http://www.schuleamstaakenerkleeblatt.de,,Brunsbütteler Damm 431-437,13591,52.5349,13.13491
05S01,05S01,Schule am Grüngürtel,sonderpaedagogik,pink,sekretariat@05G30.schule.berlin.de,http://schule-am-gruenguertel.de,,Askanierring 42,13585,52.549099,13.1934
05S03,05S03a,Schule am Gartenfeld,sonderpaedagogik,pink,schule_am_gartenfeld-berlin@t-online.de,http://www.schule-am-gartenfeld.de,Gartenfelder Straße,Gartenfelder Str. 81,13599,52.543211,13.24234
05S03,05S03b,Schule am Gartenfeld,sonderpaedagogik,pink,,,Seecktstraße,Seecktstraße 2,13581,52.526844,13.188415
05S04,05S04,Schule am Stadtrand,sonderpaedagogik,pink,kontakt@zwei-schulen.de,http://www.zwei-schulen.de,,Pionierstr. 197,13589,52.555846,13.164834
05Y01,05Y01,Freiherr-vom-Stein-Gymnasium,gymnasium,orange,freiherr-vom-stein-gymnasium@t-online.de,http://www.steingymnasium.de,,Galenstr. 40-44,13597,52.539684,13.198479
05Y02,05Y02,Kant-Gymnasium,gymnasium,orange,info@kant-gym.de,http://www.Kant-gymnasium-berlin.de,,Bismarckstr. 54,13585,52.54286,13.20115
05Y03,05Y03,Hans-Carossa-Gymnasium,gymnasium,orange,Sekretariat@hans-carossa-gymnasium.de,http://www.hcg-berlin.de,,Am Landschaftspark Gatow 40,14089,52.47244,13.13028
05Y04,05Y04,Carl-Friedrich-von-Siemens-Gymnasium,gymnasium,orange,mail@cfvsiemens.de,http://www.c-f-v-siemens-og.de,,Jungfernheideweg 79,13629,52.54559,13.26983
05Y05,05Y05,Lily-Braun-Gymnasium,gymnasium,orange,e-post@lily-braun-gymnasium.de,http://www.lily-braun-gymnasium.de,,Münsingerstr. 2,13597,52.538567,13.199029
06B01,06B01,Peter-Lenne-Schule (OSZ Natur und Umwelt),osz,black,info@peter-lenne-schule.de,http://www.peter-lenne-schule.de,Hauptstandort,Hartmannsweilerweg 29,14163,52.4418131,13.248755
06B02,06B02,Louise-Schroeder-Schule (OSZ Bürowirtschaft und Verwaltung),osz,black,info@osz-louise-schroeder.de,http://www.osz-louise-schroeder.de,Hauptstandort,Lippstädter Str. 9-11,12207,52.41127,13.30571
06B03,06B03,OSZ Bürowirtschaft I,osz,black,sekschul@oszbw1.de,https://osz-buerowirtschaft.de/,Hauptstandort,Florastr. 13,12163,52.4617512,13.328467
06B04,06B04,Wilhelm-Ostwald-Schule (OSZ Gestaltung),osz,black,verwaltung@wilhelm-ostwald-schule.de,http://www.wilhelm-ostwald-schule.de,Hauptstandort,Immenweg 6-10,12169,52.4533,13.34514
06G01,06G01,Nord-Grundschule,grundschule,green,sekretariat@nord-grund.schule.berlin.de,http://www.nordgrundschule.de,Hauptstandort,Potsdamer Str. 7,14163,52.435951,13.25558
06G02,06G02,Süd-Grundschule,grundschule,green,info@sued-grundschule.de,http://www.süd-grundschule-berlin.de,Hauptstandort,Claszeile 56,14165,52.4189,13.25839
06G03,06G03a,Johannes-Tews-Grundschule,grundschule,green,schulleitung@jtg-berlin.de,http://www.johannes-tews-grundschule.de,Hauptstandort,Wasgenstr. 50,14129,52.43162,13.21262
06G03,06G03b,Johannes-Tews-Grundschule,grundschule,green,,,Filiale,,,52.430756,13.215529
06G04,06G04,Erich-Kästner-Grundschule,grundschule,green,sekretariat@eks.schule.berlin.de,http://www.erich-kaestner-grundschule-berlin.de,Hauptstandort,Bachstelzenweg 2-8,14195,52.458141,13.283199
06G05,06G05,Conrad-Schule (Grundschule),grundschule,green,info@conrad-schule.de,http://www.conrad-schule.de,Hauptstandort,Schulstr. 4,14109,52.415181,13.146695
06G06,06G06,Mühlenau-Grundschule,grundschule,green,sekretariat@muehlenau.de,http://www.mühlenau.de,Hauptstandort,Molsheimer Str. 7,14195,52.443206,13.276002
06G07,06G07,Zinnowwald-Grundschule,grundschule,green,Sekretariat@zinnowwald.schule.berlin.de,,Hauptstandort,Wilskistr. 78,14163,52.44543,13.246529
06G08,06G08,Schweizerhof-Grundschule,grundschule,green,06G08@06G08.schule.berlin.de,http://www.schweizerhof-grundschule.de,Hauptstandort,Leo-Baeck-Str. 28-30,14167,52.42278,13.26571
06G09,06G09,Dreilinden-Grundschule,grundschule,green,sekretariat@dreilinden-grundschule.de,http://www.dreilinden-grundschule.de,Hauptstandort,Dreilindenstr. 65,14109,52.4205,13.18369
06G10,06G10,Grundschule am Buschgraben,grundschule,green,kontakt@grundschuleambuschgraben.de,http://www.grundschuleambuschgraben.de,Hauptstandort,Ludwigsfelder Str. 43-47,14165,52.42192,13.242834
06G12,06G12,Quentin-Blake-Grundschule,grundschule,green,schulleitung@quentin-blake.schule.berlin.de,http://www.quentin-blake-europe-school.de,Hauptstandort,Hüttenweg 40,14195,52.454097,13.27055
06G14,06G14,Sachsenwald-Grundschule,grundschule,green,sekretariat@sachsenwald.schule.berlin.de,http://www.sachsenwald-grundschule.de,Hauptstandort,Sachsenwaldstr. 20-21,12157,52.46151,13.3354
06G15,06G15,Dunant-Grundschule,grundschule,green,sekr@dunant-grundschule.de,http://www.dunant-grundschule.de,Hauptstandort,Gritznerstr. 19-23,12163,52.46486,13.31818
06G16,06G16,Rothenburg-Grundschule,grundschule,green,schulleitung@rothenburg-grundschule.de,http://www.rothenburg-grundschule.de,Hauptstandort,Rothenburgstr. 18,12165,52.45398,13.31302
06G17,06G17,Grundschule am Insulaner,grundschule,green,sekretariat.gsai@t-online.de,http://www.grundschule-am-insulaner.de,Hauptstandort,Hanstedter Weg 11-15,12169,52.45185,13.34956
06G18,06G18,Athene-Grundschule,grundschule,green,info@athene-grundschule.de,http://www.athene-grundschule.de,Hauptstandort,Curtiusstr. 37,12205,52.440565,13.290632
06G20,06G20,Alt-Lankwitzer Grundschule,grundschule,green,buero@a-l-gs.schule.berlin.de,http://www.alt-lankwitzer-grundschule.de,Hauptstandort,Schulstr. 17-21,12247,52.437023,13.351096
06G21,06G21,Paul-Schneider-Grundschule,grundschule,green,sekretariat@06g21.schule.berlin.de,http://www.paul-schneider-grundschule.de,Hauptstandort,Seydlitzstr. 30-34,12249,52.431002,13.341243
06G22,06G22,Giesensdorfer Grundschule,grundschule,green,sekretariat@giesensdorfer.grundschule.berlin.de,http://www.giesensdorfer-grundschule.de,Hauptstandort,Ostpreußendamm 63,12207,52.422226,13.31101
06G23,06G23,Kronach-Grundschule,grundschule,green,schulleitung@kronach.schule.berlin.de,http://www.kronach-grundschule.de,Hauptstandort,Moltkestr. 24-26,12203,52.44167,13.313098
06G24,06G24,Grundschule unter den Kastanien,grundschule,green,info@kastanie.schule.berlin.de,http://www.grundschule-unter-den-kastanien.de,Hauptstandort,Kastanienstr. 6 -8,12209,52.42546,13.32527
06G25,06G25,Clemens-Brentano-Grundschule,grundschule,green,schulleitung@c-brentano-grundschule.de,http://www.c-brentano-grundschule.de,Hauptstandort,Kommandantenstr. 83-84,12205,52.433511,13.29316
06G26,06G26,Käthe-Kruse-Grundschule,grundschule,green,Kaethe-Kruse-Grundschule@t-online.de,,Hauptstandort,Tietzenweg 108,12203,52.438186,13.310138
06G27,06G27a,Grundschule am Königsgraben,grundschule,green,sekretariat@grundschule-am-koenigsgraben.de,http://www.grundschule-am-koenigsgraben.de,Hauptstandort,Gallwitzallee 136-144,12249,52.42303,13.34815
06G28,06G28,Ludwig-Bechstein-Grundschule,grundschule,green,06G28@gmx.de,http://www.ludwig-bechstein-grundschule.net,Hauptstandort,Halbauer Weg 25,12249,52.43255,13.36236
06G29,06G29,Grundschule am Karpfenteich,grundschule,green,info@karpfenteich.schule.berlin.de,http://www.grundschule-am-karpfenteich.de,Hauptstandort,Hildburghauser Str. 135,12209,52.417401,13.333982
06G30,06G30,Mercator-Grundschule,grundschule,green,schule@mercator-gs.de,http://www.mercator-gs.de,Hauptstandort,Mercatorweg 8-10,12207,52.41225,13.317376
06G31,06G31,Grundschule an der Bäke,grundschule,green,info@baeke.net,http://www.baeke.net,Hauptstandort,Haydnstr. 15,12203,52.447783,13.318838
06G32,06G32a,Grundschule am Stadtpark Steglitz,grundschule,green,sekretariat06g32@gmx.de,http://www.grundschule-am-stadtpark-steglitz.de,Hauptstandort,Karl-Stieler-Str. 10-11,12167,52.449314,13.34298
06G33,06G33,Friedrich-Drake-Grundschule,grundschule,green,buero@f-d-gs.de,http://www.friedrich-drake-grundschule.de,Hauptstandort,Drakestr. 80,12205,52.43254,13.30621
06G34,06G34,34. Schule (Grundschule),grundschule,green,plantage34@gmx.de,http://www.plantage34.de,Hauptstandort,Plantagenstr. 8-9,12169,52.455499,13.330568
06K01,06K01,John-F.-Kennedy-Schule,iss,beige,bsalzer@jfksberlin.org,http://www.jfks.de,,Teltower Damm 87-93,14167,52.42589,13.26273
06K02,06K02a,Wilma-Rudolph-Schule (Integrierte Sekundarschule),iss,beige,buero@wilma-rudolph.de,http://www.wilma-rudolph.de,Hauptstandort,Am Hegewinkel 2A,14169,52.45479,13.26097
06K03,06K03a,Kopernikus-Schule (Integrierte Sekundarschule),iss,beige,buero@kos-mail.de,http://www.kopernikus-oberschule.de,Hauptstandort,Lepsiusstr. 24-28,12163,52.4643,13.32069
06K04,06K04,Bröndby-Schule (Integrierte Sekundarschule),iss,beige,post@broendby.de,http://www.broendby.de,Hauptstandort,Dessauerstr. 63,12249,52.428237,13.345888
06K08,06K08,Max-von-Laue-Schule,iss,beige,MvL-Berlin.Schulleitung@t-online.de,http://www.Max-von-Laue-Schule.de,Hauptstandort,Dürerstr. 27,12203,52.43725,13.305628
06K09,06K09,Gail-S.-Halvorsen-Integrierte Sekundarschule,iss,beige,sekretariat@halvorsen-schule.de,http://www.halvorsen-schule.de,Hauptstandort,Im Gehege 6,14195,52.459454,13.284371
06K10,06K10a,Helene-Lange-Schule (Integrierte Sekundarschule),iss,beige,sekretariat@helene.berlin,http://www.helene-lange-schule-steglitz.de,Hauptstandort,Lauenburger Str. 110,12169,52.4528,13.33586
06K11,06K11a,Anna-Essinger-Gemeinschaftsschule,gemeinschaft,lightgreen,sekretariat-os@aegs.de,http://aegs.de,Hauptstandort,Tietzenweg 101,12203,52.438611,13.310161
06K11,06K11b,Anna-Essinger-Gemeinschaftsschule,gemeinschaft,lightgreen,,,Filiale,Am Rohrgarten 9,14163,52.425824,13.225754
06S01,06S01,Pestalozzi-Schule,sonderpaedagogik,pink,epost@pestalozzi-schule-berlin.de,http://www.pestalozzi-schule-berlin.de,Hauptstandort,Hartmannsweilerweg 47,14163,52.44346,13.24838
06S02,06S02a,Biesalski-Schule,sonderpaedagogik,pink,buero@biesalski-schule.de,http://www.biesalski-schule.de,Hauptstandort,Hüttenweg 40,14195,52.454322,13.269575
06S03,06S03,Peter-Frankenfeld-Schule,sonderpaedagogik,pink,sekretariat@frankenfeld.schule.berlin.de,http://www.peter-frankenfeld-schule.de,Hauptstandort,Wedellstr. 26,12247,52.43515,13.35522
06S05,06S05,Johann-August-Zeune Schule für Blinde und Berufsfachschule Dr. Silex,sonderpaedagogik,pink,sekretariat@zeune-schule.de,http://www.zeune-schule.de,Hauptstandort,Rothenburgstr. 14,12165,52.455569,13.315047
06Y01,06Y01,Schadow-Gymnasium,gymnasium,orange,sekretariat@schadow-gymnasium-berlin.de,http://www.schadow-gymnasium.de,Hauptstandort,Beuckestr. 27-29,14163,52.43149,13.25463
06Y02,06Y02,Droste-Hülshoff-Gymnasium,gymnasium,orange,sekretariat@droste-gymnasium-berlin.de,http://www.droste-gymnasium-berlin.de,Hauptstandort,Schönower Str. 8,14165,52.42846,13.25673
06Y03,06Y03,Arndt-Gymnasium Dahlem,gymnasium,orange,sekretariat@arndt-gymnasium.de,http://www.arndt-gymnasium.de,Hauptstandort,Königin-Luise-Str. 80-84,14195,52.45916,13.28001
06Y04,06Y04,Dreilinden-Gymnasium,gymnasium,orange,sekretariat@dreilinden-gymnasium.de,http://www.dreilinden-gymnasium.de,Hauptstandort,Dreilindenstr. 49,14109,52.42057,13.18778
06Y05,06Y05,Werner-von-Siemens-Gymnasium,gymnasium,orange,leitung@siemens-gymnasium-berlin.de,http://www.siemens-gymnasium-berlin.de,Hauptstandort,Beskidenstr. 3,14129,52.43194,13.21159
06Y06,06Y06,Beethoven-Gymnasium,gymnasium,orange,Leitung@beethoven-gymnasium.eu,http://www.beethoven-gymnasium.eu,Hauptstandort,Barbarastr. 9,12249,52.43293,13.34283
06Y07,06Y07,Paulsen-Gymnasium,gymnasium,orange,paulsengymnasium@pg-berlin.de,http://www.paulsen-gymnasium.de,Hauptstandort,Gritznerstr. 57,12163,52.46219,13.314388
06Y08,06Y08,Hermann-Ehlers-Gymnasium,gymnasium,orange,sekretariat@hermann-ehlers-schule.de,http://www.hermann-ehlers-schule.de,Hauptstandort,Elisenstr. 3-4,12169,52.45297,13.33373
06Y09,06Y09,Fichtenberg-Oberschule,gymnasium,orange,info@fichtenberg-oberschule.net,http://fichtenberg-oberschule.net,Hauptstandort,Rothenburgstr. 18,12165,52.45398,13.31302
06Y10,06Y10,Lilienthal-Gymnasium,gymnasium,orange,sekretariat@lilienthal-gymnasium-berlin.de,http://www.lilienthal-gymnasium-berlin.de,Hauptstandort,Ringstr. 2-3,12203,52.43595,13.31215
06Y11,06Y11,Goethe-Gymnasium Lichterfelde,gymnasium,orange,sekretariat@goethe-lichterfelde.schule.berlin.de,http://www.goethe-gymnasium-lichterfelde.de,Hauptstandort,Drakestr. 72-75,12205,52.434929,13.305363
06Y12,06Y12,Willi-Graf-Gymnasium,gymnasium,orange,sekretariat@willi-graf-os.de,http://www.willi-graf-gymnasium.de,Hauptstandort,Ostpreußendamm 166,12207,52.43469,13.32096
06Y13,06Y13,Gymnasium Steglitz,gymnasium,orange,sekretariat@gymnasiumsteglitz.de,http://www.gymnasiumsteglitz.de,Hauptstandort,Heesestr. 15,12169,52.45671,13.32644
07A05,07A05,Kolleg Schöneberg,kolleg,white,Sekretariat@KollegSchoeneberg.de,http://www.KollegSchoeneberg.de,Hauptstandort,Nürnberger Str. 63,10787,52.503451,13.341312
07B02,07B02,Marie-Elisabeth-Lüders-Oberschule,osz,black,sekretariat@melo.schule.berlin.de,http://www.melo-berlin.de,Hauptstandort,Steinmetzstr. 79,10783,52.499167,13.364762
07B03,07B03,"OSZ Lotis (Logistik, Touristik und Steuern)",osz,black,sekretariat@osz-lotis.de,http://www.osz-lotis.de,Hauptstandort,Dudenstr. 35 - 37,10965,52.4846922,13.3801123
07G01,07G01,Spreewald-Grundschule,grundschule,green,Spreewald-Grundschule@gmx.de,http://www.spreewald-grundschule.de,Hauptstandort,Pallasstr. 15,10781,52.49539,13.35693
07G02,07G02,Finow-Grundschule,grundschule,green,sekretariat@finow.schule.berlin.de,http://www.finow-gs.de,Hauptstandort,Welserstr. 16-22,10777,52.49823,13.34251
07G03,07G03,Werbellinsee-Grundschule,grundschule,green,sekretariat@werbellinsee.schule.berlin.de,http://www.Werbellinsee-Grundschule.de,Hauptstandort,Luitpoldstr. 38,10781,52.495036,13.348236
07G05,07G05,Havelland-Grundschule,grundschule,green,sekretariat@havelland.schule.berlin.de,http://www.havelland-grundschule.de,Hauptstandort,Kolonnenstr. 30,10829,52.484772,13.367681
07G06,07G06,Sternberg-Grundschule,grundschule,green,Schulleitung@sternberg.schule.berlin.de,http://www.sternberg-grundschulen.de,Hauptstandort,Mettestr. 8,10825,52.48047,13.33924
07G07,07G07,Lindenhof-Grundschule,grundschule,green,sekretariat@lindenhof.schulen-ts.de,http://www.lindenhof-grundschule.de,Hauptstandort,Reglinstr. 29,12105,52.45809,13.36325
07G10,07G10,Teltow-Grundschule,grundschule,green,sekretariat@teltow.schule.berlin.de,http://www.teltow-grundschule.de,Hauptstandort,Feurigstr. 57,10827,52.484327,13.356154
07G12,07G12,Scharmützelsee-Grundschule,grundschule,green,sekretariat@scharmuetzelsee.schule.berlin.de,http://www.scharmuetzelseegrundschule.de,Hauptstandort,Hohenstaufenstr. 49,10779,52.494177,13.343268
07G13,07G13,Neumark-Grundschule,grundschule,green,sekretariat@neumark.schule.berlin.de,http://www.neumark-grundschule.de,Hauptstandort,Steinmetzstr. 46-50,10783,52.49282,13.36249
07G14,07G14,Löcknitz-Grundschule,grundschule,green,sekretariat@loecknitz.schule.berlin.de,http://www.loecknitz-grundschule.de,Hauptstandort,Berchtesgadener Str. 10-11,10779,52.489558,13.343356
07G15,07G15,Fläming-Grundschule,grundschule,green,flaeming@schulen-tempelhof-schoeneberg.de,http://www.flaeming-grundschule.de,Hauptstandort,Illstr. 4-6,12161,52.46839,13.3329
07G16,07G16,Ruppin-Grundschule,grundschule,green,ruppingrundschule@web.de,http://www.ruppin-grundschule.de,Hauptstandort,Offenbacher Str. 5A,14197,52.47538,13.32137
07G17,07G17,Stechlinsee-Grundschule,grundschule,green,Stechlinsee-Grundschule.Cids@t-online.de,http://www.stechlinsee-grundschule.de,Hauptstandort,Rheingaustr. 7,12161,52.46934,13.32242
07G18,07G18,Grundschule am Barbarossaplatz,grundschule,green,07g18@07g18.schule.berlin.de,http://www.grundschuleambarbarossaplatz.de,Hauptstandort,Barbarossaplatz 5,10781,52.49235,13.34978
07G19,07G19,Paul-Simmel-Grundschule,grundschule,green,sekretariat@paulsimmel.schule.berlin.de,http://www.paul-simmel-grundschule.de,Hauptstandort,Felixstr. 26-58,12099,52.46137,13.3926
07G20,07G20,Maria-Montessori-Grundschule,grundschule,green,sekretariat@mmg.schule.berlin.de,http://www.mmg-online.de,Hauptstandort,Friedrich-Wilhelm-Str. 72-74,12103,52.45817,13.38069
07G21,07G21,Grundschule auf dem Tempelhofer Feld,grundschule,green,sekretariat@tempelhoferfeld.schule.berlin.de,http://gs-tempelhoferfeld.de,Hauptstandort,Schulenburgring 7-11,12101,52.48081,13.38185
07G22,07G22,Paul-Klee-Grundschule,grundschule,green,Sekretariat@07G22.schule.berlin.de,http://www.paul-klee-schule.de,Hauptstandort,Konradinstr. 15-17,12105,52.454,13.37538
07G23,07G23,Schätzelberg-Grundschule,grundschule,green,07g23@07g23.schule.berlin.de,http://www.schaetzelberg-grundschule.de,Hauptstandort,Wolfsburger Weg 13-19,12109,52.4487,13.40066
07G24,07G24,Tempelherren-Grundschule,grundschule,green,sekretariat@tempelherren.schulen-ts.de,http://www.tempelherren-grundschule.de,Hauptstandort,Boelckestr. 58-60,12101,52.478603,13.37647
07G25,07G25,Mascha-Kaléko-Grundschule,grundschule,green,sekretariat@mascha-kaleko-grundschule.de,http://www.mascha-kaleko-grundschule.de,Hauptstandort,Königstr. 32,12105,52.447125,13.383928
07G26,07G26,Grundschule im Taunusviertel,grundschule,green,sekretariat@taunusviertel.schule.berlin.de,http://www.grundschule-im-taunusviertel.de,Hauptstandort,Wiesbadener Str. 20,12309,52.40019,13.41799
07G27,07G27,Rudolf-Hildebrand-Grundschule,grundschule,green,sekretariat@rhg.schule.berlin.de,https://rhg.schule/,Hauptstandort,Friedenstr. 23-25,12107,52.43886,13.3855
07G28,07G28,Kiepert-Grundschule,grundschule,green,schulleitung@kiepert.schule.berlin.de,http://www.kiepertgrundschule.de,Hauptstandort,Prechtlstr. 21-23,12277,52.41591,13.37327
07G29,07G29,Käthe-Kollwitz-Grundschule,grundschule,green,sekretariat@kollwitz-gs.schule.berlin.de,http://www.kkgs-berlin.de,Hauptstandort,Mellener Str. 38-42,12307,52.3862,13.40487
07G30,07G30,Annedore-Leber-Grundschule,grundschule,green,Schulleitung@algs.schule.berlin.de,http://www.algs.de,Hauptstandort,Halker Zeile 137-149,12305,52.39757,13.40197
07G31,07G31,Carl-Sonnenschein-Grundschule,grundschule,green,07g31@07g31.schule.berlin.de,http://www.carl-sonnenschein-gs.de,Hauptstandort,Am Hellespont 4-6,12109,52.443699,13.408152
07G32,07G32,Bruno-H.-Bürgel-Grundschule,grundschule,green,sekretariat@bhb.schule.berlin.de,http://www.bruno-h-buergel-grundschule.de,Hauptstandort,Rackebüller Weg 70,12305,52.404902,13.402536
07G34,07G34a,Marienfelder Schule (Grundschule),grundschule,green,sekretariat@marienfelder.schulen-ts.de,http://www.marienfelder-gs.de,Hauptstandort,Erbendorfer Weg 13,12279,52.41209,13.35184
07G34,07G34c,Marienfelder Schule (Grundschule),grundschule,green,,,Filiale,Tirschenreuther Ring 69,12279,52.409845,13.354812
07G35,07G35,Nahariya-Grundschule,grundschule,green,sekretariat@nahariya.schule.berlin.de,http://www.nahariyaschule.de,Hauptstandort,Nahariyastr. 13-17,12309,52.39085,13.41943
07G36,07G36,Grundschule am Dielingsgrund,grundschule,green,sekretariat@dielingsgrund.schulen-ts.de,http://www.dielingsgrund.com,Hauptstandort,Dielingsgrund 35,12305,52.41166,13.40863
07G37,07G37,Ikarus-Grundschule,grundschule,green,07g37@07g37.schule.berlin.de,http://www.ikarus-grundschule.de,Hauptstandort,Körtingstr. 45,12107,52.43363,13.38389
07K01,07K01a,Sophie-Scholl-Schule,iss,beige,kontakt@sophie-scholl-schule.eu,http://sophie-scholl-schule.eu,Hauptstandort,Elßholzstr. 34-37,10781,52.493992,13.356788
07K02,07K02,Carl-Zeiss-Schule,iss,beige,sekretariat@carl-zeiss-oberschule.de,http://www.carl-zeiss-oberschule.de,Hauptstandort,Barnetstr. 12-14,12305,52.39571,13.40258
07K03,07K03,Gustav-Heinemann-Oberschule,iss,beige,Sekretariat@ghoberlin.de,http://gho.berlin,Hauptstandort,Waldsassener Str. 62,12279,52.40662,13.34754
07K04,07K04,Theodor-Haubach-Schule,iss,beige,sekretariat@ths-berlin.de,http://www.ths-berlin.de,Hauptstandort,Grimmstr. 9-11,12305,52.398399,13.403988
07K05,07K05,Solling-Schule,iss,beige,sekretariat@solling-schule.de,http://www.solling-schule.de,Hauptstandort,Alt-Marienfelde 52,12277,52.41397,13.36527
07K06,07K06,Georg-von-Giesche-Schule,iss,beige,kontakt@georg-von-giesche-schule.de,http://www.georg-von-giesche-schule.de,Hauptstandort,Hohenstaufenstr. 47-48,10779,52.494144,13.342529
07K07,07K07,Johanna-Eck-Schule (Integrierte Sekundarschule),iss,beige,sekretariat@johanna-eck-schule.de,http://www.johanna-eck-schule.de,Hauptstandort,Ringstr. 103-106,12105,52.44692,13.36411
07K09,07K09,Gustav-Langenscheidt-Schule,iss,beige,schulleitung@langenscheidt.schule.berlin.de,http://www.gustav-langenscheidt-schule.de,Hauptstandort,Belziger Str. 43-51,10823,52.485997,13.350718
07K10,07K10,Friedrich-Bergius-Schule,iss,beige,Sekretariat@fbs-schule.de,http://www.Friedrich-Bergius-Schule.de,Hauptstandort,Perelsplatz 6-9,12159,52.47618,13.33314
07K11,07K11,Hugo-Gaudig-Schule,iss,beige,Jasmin.dohrmann@hugo-gaudig-schule.de,http://www.hugo-gaudig-schule.de,Hauptstandort,Boelckestraße 58,12101,52.478179,13.375777
07K12,07K12a,Friedenauer Gemeinschaftsschule,gemeinschaft,lightgreen,07K12@07K12.schule.berlin.de,http://www.friedenauer-gemeinschaftsschule.de,Hauptstandort,Rubensstr. 63,12157,52.469784,13.344068
07K12,07K12b,Friedenauer Gemeinschaftsschule,gemeinschaft,lightgreen,,,Filiale,Grazer Platz 1-3 ,12157,52.467677,13.344929
07K13,07K13,Schule am Berlinickeplatz (Integrierte Sekundarschule),iss,beige,schule07k13@gmx.de,http://schuleberlinickeplatz.blogspot.de,Hauptstandort,Alt-Tempelhof 53-57,12103,52.465657,13.379583
07S01,07S01,Prignitz-Schule,sonderpaedagogik,pink,07s01@07s01.schule.berlin.de,,Hauptstandort,Pöppelmannstr. 2,12157,52.46884,13.34519
07S03,07S03,Steinwald-Schule,sonderpaedagogik,pink,schulleitung@steinwald.schule.berlin.de,http://www.steinwald-schule-berlin.de,Hauptstandort,Hanielweg 7-9,12277,52.41783,13.36458
07S04,07S04,Marianne-Cohn-Schule,sonderpaedagogik,pink,sekretariat@cohn.schulen-ts.de,http://www.marianne-cohn-schule.de,Hauptstandort,Holzmannstr. 7,12099,52.46433,13.41815
07Y01,07Y01,Robert-Blum-Gymnasium,gymnasium,orange,sekretariat@robert-blum-schule.de,http://www.robert-blum-schule.de,Hauptstandort,Kolonnenstr. 21,10829,52.48483,13.36487
07Y02,07Y02,Rückert-Gymnasium,gymnasium,orange,schulleitung@rueckert-gymnasium-berlin.de,http://www.rueckert-gymnasium.berlin,Hauptstandort,Mettestr. 8,10825,52.48047,13.33924
07Y03,07Y03,Rheingau-Gymnasium,gymnasium,orange,sekretariat@rheingau-gymnasium.de,http://www.rheingau-gymnasium.de,Hauptstandort,Schwalbacher Str. 3-4,12161,52.470206,13.322611
07Y04,07Y04,Paul-Natorp-Gymnasium,gymnasium,orange,sekretariat@natorp-gymnasium.de,http://www.natorp.de,Hauptstandort,Goßlerstr. 13-15,12161,52.46939,13.32431
07Y05,07Y05a,Luise-Henriette-Gymnasium,gymnasium,orange,sekretariat@l-h-g.de,http://www.luise-henriette-berlin.de,Hauptstandort,Kurfürstenstraße 53-54,12105,52.447997,13.383776
07Y06,07Y06,Askanisches Gymnasium,gymnasium,orange,sekretariat@askanisches-gymnasium.de,http://www.askanisches-gymnasium.de,Hauptstandort,Kaiserin-Augusta-Str. 19-20,12103,52.45992,13.37992
07Y07,07Y07,Eckener-Gymnasium,gymnasium,orange,info@eckener-gymnasium.de,http://www.eckener-gymnasium.de,Hauptstandort,Kaiserstr. 17-21,12105,52.4451,13.38052
07Y08,07Y08,Ulrich-von-Hutten-Gymnasium,gymnasium,orange,uvh@uvh-online.de,http://www.uvh-online.de,Hauptstandort,Rehagener Str. 35-37,12307,52.38563,13.40388
07Y09,07Y09,Georg-Büchner-Gymnasium,gymnasium,orange,sekretariat@gbgonline.de,http://www.gbgonline.de,Hauptstandort,Lichtenrader Damm 224,12305,52.39186,13.406604
08B01,08B01a,Annedore-Leber-Oberschule,osz,black,info@aloberlin.de,https://www.aloberlin.de,Hauptstandort,Goltzstr. 43-44,10781,52.491374,13.353027
08B01,08B01b,Annedore-Leber-Oberschule,osz,black,,,Filiale,Ostpreußendamm 40,12207,52.430261,13.317082
08B01,08B01c,Annedore-Leber-Oberschule,osz,black,,,Filiale,Paster-Behrens-Straße 88,12359,52.4431991,13.442569
08B02,08B02,"Lise-Meitner-Schule (OSZ Chemie, Physik und Biologie)",osz,black,verwaltung@osz-lise-meitner.eu,https://www.osz-lise-meitner.eu,Hauptstandort,Lipschitzallee 25,12351,52.42927,13.4733399
08B04,08B04,OSZ Informations- und Medizintechnik,osz,black,info@oszimt.de,http://www.oszimt.de,Hauptstandort,Haarlemer Str. 27,12359,52.4580606,13.452418
08G01,08G01,Rixdorfer Schule (Grundschule),grundschule,green,berlin.08G01@t-online.de,http://www.die-rixdorfer.de,Hauptstandort,Donaustr. 120,12043,52.484904,13.431792
08G02,08G02,Theodor-Storm-Schule (Grundschule),grundschule,green,sekretariat@theodor-storm.schuel.berlin.de,http://www.Theodor-Storm-Grundschule.de,Hauptstandort,Hobrechtstr. 76,12043,52.486488,13.426763
08G03,08G03,Hans-Fallada-Schule (Grundschule),grundschule,green,hans-fallada-schule@gmx.de,http://www.hans-fallada-schule.de,Hauptstandort,Harzer Str. 73,12059,52.483564,13.451851
08G05,08G05,Elbe-Schule (Grundschule),grundschule,green,berlin-08g05@versanet.de,http://www.elbeschule.de,Hauptstandort,Elbestr. 11,12045,52.48442,13.44062
08G06,08G06,Karl-Weise-Schule (Grundschule),grundschule,green,08G06@08G06.schule.berlin.de,http://karl-weise-schule.de,Hauptstandort,Weisestr. 20,12049,52.476503,13.423961
08G07,08G07,Hermann-Boddin-Schule (Grundschule),grundschule,green,berlin.08g07@t-online.de,http://www.boddin-schule.de,Hauptstandort,Boddinstr. 55,12053,52.480416,13.431252
08G08,08G08a,Karlsgarten-Schule (Grundschule),grundschule,green,berlin.08G08@versanet.de,http://www.karlsgarten.de,Hauptstandort,Karlsgartenstr. 7,12049,52.482131,13.422101
08G09,08G09,Regenbogen-Schule (Grundschule),grundschule,green,schulleitung@regenbogen.schule.berlin.de,http://www.regenbogen-grundschule.de,Hauptstandort,Morusstr. 32,12053,52.47578,13.43333
08G11,08G11,Schliemann-Grundschule,grundschule,green,sekretariat@schliemann-grundschule.de,http://www.schliemann-grundschule.de,Hauptstandort,Groß-Ziethener Chaussee 73,12355,52.41198,13.48526
08G12,08G12,Peter-Petersen-Schule (Grundschule),grundschule,green,info@pps-berlin.de,http://www.pps-berlin.de,Hauptstandort,Jonasstr. 15,12053,52.47189,13.43548
08G13,08G13,Bruno-Taut-Schule (Grundschule),grundschule,green,Berlin_08G13@versanet.de,http://www.bruno-taut.de,Hauptstandort,Bruno-Taut-Ring 9C,12359,52.44095,13.44886
08G14,08G14,Konrad-Agahd-Schule (Grundschule),grundschule,green,schulleitung@schule.agahd.berlin.de,http://www.agahd.de,Hauptstandort,Thomasstr. 39,12053,52.4725,13.43556
08G15,08G15,Hermann-Sander-Schule (Grundschule),grundschule,green,info@hermann-sander-schule.de,http://www.hermann-sander-schule.de,Hauptstandort,Mariendorfer Weg 69,12051,52.46416,13.43005
08G16,08G16,Hugo-Heimann-Schule (Grundschule),grundschule,green,sekretariat@hugoheimann.schule.berlin.de,http://www.hugoheimannschule.de,Hauptstandort,Hugo-Heimann-Str. 20,12353,52.42538,13.45705
08G17,08G17,Richard-Schule (Grundschule),grundschule,green,08G17@o8G17.schule.berlin.de,http://www.richard-grundschule.de,Hauptstandort,Richardplatz 14,12055,52.47359,13.44439
08G18,08G18,Eduard-Mörike-Schule (Grundschule),grundschule,green,eduard-moerike@freenet.de,http://ems-neukoelln.de,Hauptstandort,Stuttgarter Str. 35-39,12059,52.477969,13.450143
08G19,08G19,Herman-Nohl-Schule (Grundschule),grundschule,green,sekretariat@nohl-schule.de,http://www.herman-nohl.de,Hauptstandort,Hannemannstr. 69,12347,52.455159,13.43894
08G20,08G20,Sonnen-Schule (Grundschule),grundschule,green,sekretariat@sonnen.schule.berlin.de,,Hauptstandort,Dammweg 228,12057,52.47197,13.46714
08G21,08G21,Silberstein-Schule (Grundschule),grundschule,green,info@silberstein-schule.de,http://www.silberstein-schule.de,Hauptstandort,Silbersteinstr. 42,12051,52.466965,13.434906
08G22,08G22,Schule am Regenweiher (Grundschule),grundschule,green,info@Grundschule-am-Regenweiher.de,http://www.Grundschule-am-Regenweiher.de,Hauptstandort,Johannisthaler Chaussee 328,12351,52.42985,13.45178
08G23,08G23,Zürich-Schule (Grundschule),grundschule,green,Sekretariat@zuerich.schule.berlin.de,http://www.zuerich-schule-berlin.de,Hauptstandort,Wederstr. 49,12347,52.462585,13.439533
08G24,08G24,Schule am Teltowkanal (Grundschule),grundschule,green,08G24@08G24.schule.berlin.de,http://www.schule-am-teltowkanal.de,Hauptstandort,Rungiusstr. 46,12347,52.45925,13.44063
08G25,08G25,Michael-Ende-Schule (Grundschule),grundschule,green,sekretariat@michael-ende.schule.berlin.de,http://www.michael-ende-schule-berlin.de,Hauptstandort,Neuhofer Str. 41,12355,52.41346,13.50984
08G26,08G26,Christoph-Ruden-Schule (Grundschule),grundschule,green,sekretariat@08G26.schule.berlin.de,http://www.christoph-ruden-schule.de,Hauptstandort,An den Achterhöfen 13,12349,52.421067,13.435095
08G27,08G27,Oskar-Heinroth-Schule (Grundschule),grundschule,green,08G27@08G27.schule.berlin.de,http://oskar-heinroth-schule.de,Hauptstandort,Rohrdommelweg 1,12359,52.44057,13.47209
08G28,08G28,Matthias-Claudius-Schule (Grundschule),grundschule,green,post@mcgs.berlin,http://www.mcgs.berlin,Hauptstandort,Köpenicker Str. 148,12355,52.420381,13.501675
08G29,08G29,Wetzlar-Schule (Grundschule),grundschule,green,Berlin.08G29@t-online.de,http://www.wetzlar-schule.de,Hauptstandort,Tischlerzeile 34,12351,52.43092,13.44294
08G30,08G30,Schule am Sandsteinweg (Grundschule),grundschule,green,sekretariat@sams.schule.berlin.de,http://www.sams.gs,Hauptstandort,Hornblendeweg 2,12349,52.41829,13.40469
08G31,08G31,Janusz-Korczak-Schule (Grundschule),grundschule,green,sekretariat@jkgs.schule.berlin.de,http://jkgs-berlin.de,Hauptstandort,Wildhüterweg 5,12353,52.42179,13.45659
08G33,08G33,Schule am Fliederbusch (Grundschule),grundschule,green,sekretariat@fliederbusch.schule.berlin.de,http://www.schule-am-fliederbusch.de,Hauptstandort,Kornradenstr. 2,12357,52.42424,13.48673
08G34,08G34,Lisa-Tetzner-Schule (Grundschule),grundschule,green,berlin.08g34@t-online.de,http://www.lisa-tetzner.de,Hauptstandort,Hasenhegerweg 12,12353,52.42254,13.44504
08G35,08G35,Schule in der Köllnischen Heide (Grundschule),grundschule,green,grundheide@t-online.de,,Hauptstandort,Hänselstr. 6,12057,52.4666,13.4721
08G36,08G36,Löwenzahn-Schule (Grundschule),grundschule,green,sekretariat@loewenzahn.schule.berlin.de,http://www.loewenzahn-schule.de,Hauptstandort,Drorystr. 3,12055,52.472499,13.448771
08G37,08G37,Rose-Oehmichen-Schule (Grundschule),grundschule,green,sekretariat@08g37.schule.berlin.de,http://www.rose-oehmichen-schule-berlin.de,Hauptstandort,Lieselotte-Berger-Str. 65,12355,52.401126,13.501995
08K01,08K01,Walter-Gropius-Schule (Gemeinschaftsschule),gemeinschaft,lightgreen,Gemeinschaftsschule@walter-gropius-schule-berlin.de,http://www.walter-gropius-schule-berlin.de,Hauptstandort,Fritz-Erler-Allee 86,12351,52.42934,13.46355
08K02,08K02,Hermann-von-Helmholtz-Schule,iss,beige,info@hvhschule.de,http://www.hvhschule.de,Hauptstandort,Wutzkyallee 68,12353,52.421823,13.472974
08K03,08K03,Otto-Hahn-Schule,iss,beige,sekretariat@ohs.berlin,http://ohs.berlin,Hauptstandort,Buschkrugallee 63,12359,52.45809,13.449
08K04,08K04,Heinrich-Mann-Schule,iss,beige,08K04@08K04.schule.berlin.de,http://www.heinrichmannschule.de/,Hauptstandort,Gerlinger Str. 22,12353,52.41578,13.43231
08K05,08K05a,Clay-Schule,iss,beige,sekretariat@clay-schule.de,http://www.clay-schule.de,Hauptstandort,Bildhauerweg 9,12355,52.41759,13.48999
08K06,08K06a,Fritz-Karsen-Schule (Gemeinschaftsschule),gemeinschaft,lightgreen,sekretariat@fritz-karsen.de,http://www.fritz-karsen.de,Hauptstandort,Onkel-Bräsig-Str. 76-78,12359,52.44865,13.44389
08K06,08K06c,Fritz-Karsen-Schule (Gemeinschaftsschule),gemeinschaft,lightgreen,,,Filiale,Backbergstraße 39,12359,52.448018,13.437736
08K08,08K08a,Gemeinschaftsschule auf dem Campus Rütli,gemeinschaft,lightgreen,schulleitung@campusruetli.de,http://www.campusruetli.de,Hauptstandort,Rütlistr. 41,12045,52.487309,13.434226
08K08,08K08c,Gemeinschaftsschule auf dem Campus Rütli,gemeinschaft,lightgreen,,,Filiale,Weserstraße 12,12047,52.487651,13.430175
08K09,08K09,Röntgen-Schule,iss,beige,berlin.08K09@versanet.de,http://www.roentgen-sekundarschule.de,Hauptstandort,Wildenbruchstr. 53,12435,52.488886,13.449558
08K10,08K10,Zuckmayer-Schule,iss,beige,08K10@08K10.schule.berlin.de,http://www.zuckmayer-schule.de,Hauptstandort,Kopfstr. 55,12053,52.4761,13.43129
08K11,08K11a,Alfred-Nobel-Schule,iss,beige,alfred-nobel-schule@t-online.de,http://www.alfred-nobel-schule.de,Hauptstandort,Britzer Damm 164,12347,52.448,13.43469
08K11,08K11b,Alfred-Nobel-Schule,iss,beige,,,Filiale,Parchimer Allee 111,12359,52.445597,13.443513
08K12,08K12,Kepler-Schule,iss,beige,08K12@08K12.schule.berlin.de,,Hauptstandort,Zwillingestr. 21,12057,52.46737,13.46477
08K13,08K13a,Gemeinschaftsschule Campus Efeuweg,gemeinschaft,lightgreen,verwaltung@campus-efeuweg.de,http://www.gemeinschaftsschule.campus-efeuweg.de,Hauptstandort,Efeuweg 34,12357,52.426935,13.473868
08S01,08S01,Adolf-Reichwein-Schule,sonderpaedagogik,pink,sekretariat@adolf-reichwein.schule.berlin.de,http://www.adolf-reichwein-schule.com,Hauptstandort,Sonnenallee 188,12059,52.475733,13.450826
08S04,08S04,Schule am Zwickauer Damm,sonderpaedagogik,pink,Schule_am_Zwickauer_Damm1@t-online.de,http://www.schule-am-zwickauer-damm.de,Hauptstandort,Zwickauer Damm 17-22,12353,52.422,13.48315
08S05,08S05a,Schule am Hasenhegerweg,sonderpaedagogik,pink,08S05@web.de,http://www.hasenheger.de,Hauptstandort,Hasenhegerweg 12,12353,52.42254,13.44504
08S06,08S06a,Hans-Fallada-Schule,sonderpaedagogik,pink,hans-fallada-schule@gmx.de,http://www.hans-fallada-schule.de,Hauptstandort,Harzer Str. 73-74,12059,52.483564,13.451851
08S07,08S07,Schule am Bienwaldring,sonderpaedagogik,pink,berlin.08S07@t-online.de,http://www.bienwaldring.cidsnet.de,Hauptstandort,Breitunger Weg 1,12349,52.42178,13.42537
08S08,08S08,Schilling-Schule,sonderpaedagogik,pink,schulleitung@schillingschule.de,http://www.schillingschule.de,Hauptstandort,Paster-Behrens-Str. 81,12359,52.442637,13.444198
08S09,08S09,Schule an der Windmühle,sonderpaedagogik,pink,08S09@08S09.schule.berlin.de,http://www.schule-an-der-windmuehle.de,Hauptstandort,Buckower Damm 176,12349,52.42741,13.43451
08Y01,08Y01a,Albrecht-Dürer-Gymnasium,gymnasium,orange,email@albrecht-duerer-gymnasium.de,http://www.albrecht-duerer-gymnasium.de,Hauptstandort,Emser Str. 132-137,12051,52.469446,13.439583
08Y02,08Y02,Albert-Schweitzer-Gymnasium,gymnasium,orange,sekretariat@die-schweitzer.de,http://www.die-schweitzer.de,Hauptstandort,Karl-Marx-Str. 14,12043,52.4852,13.42649
08Y03,08Y03,Albert-Einstein-Gymnasium,gymnasium,orange,sekretariat@aeo.de,http://www.aeo.de,Hauptstandort,Parchimer Allee 109,12359,52.445359,13.443024
08Y04,08Y04,Ernst-Abbe-Gymnasium,gymnasium,orange,schule@ernst-abbe.de,http://www.ernst-abbe.de,Hauptstandort,Sonnenallee 79,12045,52.48349,13.43711
08Y05,08Y05,Leonardo-da-Vinci-Gymnasium,gymnasium,orange,sekretariat@08y05.schule.berlin.de,http://Leonardo-da-Vinci-Gymnasium.de,Hauptstandort,Haewererweg 35,12349,52.41623,13.42658
08Y06,08Y06,Hannah-Arendt-Gymnasium,gymnasium,orange,h-a-os997@t-online.de,http://www.hannah-arendt-os.de,Hauptstandort,Elfriede-Kuhr-Str. 17,12355,52.40411,13.508639
09A05,09A05,Treptow-Kolleg,kolleg,white,Schulleitung@treptow-kolleg.de,http://www.treptow-kolleg.de,,Kiefholzstr. 274,12437,52.46818,13.48463
09B03,09B03,Hermann-Scheer-Schule (OSZ Wirtschaft),osz,black,sekretariat@hs-osz.de,http://www.hermann-scheer-schule.de,Hauptstandort,Helmholtzstr. 37,12459,52.46634,13.50742
09G01,09G01,Bouché-Schule (Grundschule),grundschule,green,sekretariat@bouche.schule.berlin.de,http://www.bouche-schule.de,,Bouchestr. 5-10,12435,52.49327,13.45252
09G03,09G03,Schule am Heidekampgraben (Grundschule),grundschule,green,kontakt@heidekampgraben.de,http://www.grundschuleamheidekampgraben.de,,Hänselstr. 14,12437,52.46872,13.47837
09G04,09G04,Sonnenblumen-Schule (Grundschule),grundschule,green,sekretariat@sonnenblumen.de,http://www.sonnenblumen-grundschule.de,,Radenzer Str. 16,12437,52.46163,13.48872
09G05,09G05,Schule am Ginkobaum (Grundschule),grundschule,green,Sekretariat@ginkobaum.schule.berlin.de,http://www.ginkobaumschule.de,,Springbornstr. 250,12487,52.44014,13.4979
09G06,09G06,Melli-Beese-Schule (Grundschule),grundschule,green,Sekretariat@melli-beese.schule.berlin.de,http://www.melli-beese-schule.de,,Engelhardstr. 18,12487,52.44696,13.51031
09G07,09G07,Schule an der alten Feuerwache (Grundschule),grundschule,green,Sekretariat@09G07.schule.berlin.de,http://www.schuleanderfeuerwache.de,,Schnellerstr. 31,12439,52.45459,13.51379
09G09,09G09a,Heide-Schule (Grundschule),grundschule,green,heidegrundschule-berlin@gmx.de,http://www.heideschule-berlin.de,,Florian-Geyer-Str. 87,12489,52.438648,13.543713
09G09,09G09b,Heide-Schule (Grundschule),grundschule,green,,,Filiale,Waldstraße 7,12489,52.442714,13.551495
09G10,09G10,Schule am Berg (Grundschule),grundschule,green,grundschuleamberg@t-online.de,http://www.schuleamberg.de,,Köpenicker Str. 31,12524,52.41866,13.538044
09G11,09G11,Schule am Pegasuseck (Grundschule),grundschule,green,09g11@09g11.schule.berlin.de,http://www.pegasuseck.de,,Pegasuseck 5,12524,52.40638,13.5294
09G13,09G13,Schule am Altglienicker Wasserturm (Grundschule),grundschule,green,info@wasserturm-schule.de,http://www.wasserturm-schule.de,,Sachsenstr. 22,12524,52.41079,13.55406
09G14,09G14,Schule am Buntzelberg (Grundschule),grundschule,green,sekretariat@schule.buntzelberg.berlin.de,http://www.schule-am-buntzelberg.de,,Schulzendorfer Str. 112,12526,52.40671,13.57427
09G15,09G15,Schule am Mohnweg (Grundschule),grundschule,green,sekretariat@mohnweg.schule.berlin.de,http://www.grundschuleammohnweg.de,,Mohnweg 20,12524,52.40733,13.53679
09G16,09G16,Wendenschloß-Schule (Grundschule),grundschule,green,wendenschloss-g.rektorat@t-online.de,,,Köpenzeile 123,12557,52.42845,13.5953
09G17,09G17,Uhlenhorst-Grundschule,grundschule,green,Sekretariat@09G17.schule.berlin.de,http://www.uhlenhorst-grundschule.de,,Wongrowitzer Steig 37,12555,52.467512,13.579352
09G18,09G18,Schule in der Köllnischen Vorstadt (Grundschule),grundschule,green,schulbuero.09G18@t-online.de,http://www.gs-kvstd.cidsnet.de,,Rudower Str. 201,12557,52.43946,13.56429
09G19,09G19,Amtsfeld-Schule (Grundschule),grundschule,green,amtsfeld-grundschule@t-online.de,http://www.amtsfeld-schule.de,,Pablo-Neruda-Str. 8,12559,52.44262,13.58891
09G20,09G20,Müggelheimer Schule (Grundschule),grundschule,green,sekretariat@09g20.schule.berlin.de,http://mueggelheimer-grundschule.de,,Odernheimer Str. 28,12559,52.41469,13.66739
09G21,09G21,Edison-Grundschule,grundschule,green,sekretariat@edison.schule.berlin.de,http://www.edison-grundschule.de,,Wattstr. 69-70,12459,52.46607,13.50886
09G22,09G22,Schule an der Wuhlheide (Grundschule),grundschule,green,09G22@09G22.schule.berlin.de,http://www.grundschule-an-der-wuhlheide.de,,Kottmeierstr. 2,12459,52.462579,13.524106
09G23,09G23,Hauptmann-von-Köpenick-Schule (Grundschule),grundschule,green,hvkschule@t-online.de,http://www.hvkschule.de,,Borgmannstr. 2,12555,52.45624,13.58095
09G24,09G24a,Müggelsee-Schule (Grundschule),grundschule,green,info@mueggelsee-grundschule.de,http://www.mueggelsee-grundschule.de,,Aßmannstr. 63,12587,52.45072,13.62746
09G24,09G24b,Müggelsee-Schule (Grundschule),grundschule,green,,,Filiale,Rahnsdorfer Str. 35,12587,52.450956,13.632986
09G25,09G25,Müggelschlößchen-Schule (Grundschule),grundschule,green,mueggelschloesschen-schule@t-online.de,http://www.ms-schule.de,,Alfred-Randt-Str. 56,12559,52.43884,13.6059
09G26,09G26,Schule an den Püttbergen (Grundschule),grundschule,green,Sekretariat@09G26.schule.berlin.de,http://www.schule-an-den-puettbergen.de,,Fürstenwalder Allee 182,12589,52.43385,13.70158
09G27,09G27,Friedrichshagener Schule (Grundschule),grundschule,green,09g27@09g27.schule.berlin.de,http://www.friehagrund.de,,Peter-Hille-Str. 7,12587,52.454606,13.621399
09G29,09G29,Schmöckwitzer Insel-Schule (Grundschule),grundschule,green,grundschule-schmoeckwitz@gmx.de,http://www.schmöckis.de,,Adlergestell 776,12527,52.376769,13.647546
09G30,09G30,Kiefholz-Grundschule,grundschule,green,sekretariat@kiefholz.schule.berlin.de,http://kiefholz-grundschule.de,,Kiefholzstr. 45,12435,52.48626,13.45609
09G31,09G31,31. Schule,grundschule,green,,,,Keplerstr. 10,12459,52.459334,13.532459
09K01,09K01a,Merian-Schule (Integrierte Sekundarschule),iss,beige,Sekretariat-Hoernlestrasse@09K01.schule.berlin.de,http://www.merian.schule,,Hoernlestr. 80,12555,52.46431,13.57643
09K01,09K01b,Merian-Schule (Integrierte Sekundarschule),iss,beige,,,Filiale,Mittelheide 49,12555,52.462941,13.590616
09K02,09K02,Anna-Seghers-Schule (Gemeinschaftsschule),gemeinschaft,lightgreen,09k02@09k02.schule.berlin.de,http://www.anna-seghers-schule.de,,Radickestr. 43,12489,52.435416,13.548246
09K03,09K03a,Fritz-Kühn-Schule,iss,beige,sekretariat@fritz-kuehn-schule.de,http://www.fritz-kuehn-schule.de,,Dahmestr. 45,12526,52.40141,13.5647
09K03,09K03b,Fritz-Kühn-Schule,iss,beige,,,Filiale,Dahmestr. 36,12526,52.401705,13.569518
09K04,09K04,Isaac-Newton-Schule (Integrierte Sekundarschule),iss,beige,sekretariat@isaac-newton-schule.de,http://www.isaac-newton-schule.de,,Zeppelinstr. 76-80,12459,52.4659,13.51817
09K05,09K05,Wilhelm-Bölsche-Schule (Integrierte Sekundarschule),iss,beige,Sekretariat@boelsche.schule.berlin.de,http://wilhelm-boelsche-schule.de/,,Aßmannstr. 11,12587,52.45109,13.61894
09K06,09K06,Hans-Grade-Schule (Integrierte Sekundarschule),iss,beige,09k06@09k06.schule.berlin.de,http://hans-grade-schule.de,,Heubergerweg 37,12487,52.444484,13.499022
09K07,09K07a,Sophie-Brahe-Gemeinschaftsschule,gemeinschaft,lightgreen,sophie-brahe-schule@gmx.de,http://www.sophie-brahe-schule.de,,Am Plänterwald 17,12435,52.48171,13.47804
09K07,09K07c,Sophie-Brahe-Gemeinschaftsschule,gemeinschaft,lightgreen,,,AS,Willi-Sänger-Str. 1,12437,52.47731,13.484477
09K08,09K08,Schule an der Dahme (Integrierte Sekundarschule),iss,beige,info@dahmeschule.de,http://www.dahmeschule.de/,,Glienicker Str. 24 -30,12557,52.44056,13.56727
09K09,09K09,Grünauer Gemeinschaftsschule,gemeinschaft,lightgreen,sekretariat@gruenauer-schule.de,http://www.gruenauer-schule.de,,Walchenseestr. 40,12527,52.419368,13.576124
09S03,09S03,Albatros-Schule,sonderpaedagogik,pink,info@albatros.schule.berlin.de,http://www.albatros.schule-berlin.de,,Treskowallee 222,12459,52.471245,13.516154
09S04,09S04a,Ahorn-Schule,sonderpaedagogik,pink,09S04@09S04.schule.berlin.de,http://www.ahorn-schule.de,,Peter-Hille-Str. 118,12587,52.44782,13.61966
09S04,09S04b,Ahorn-Schule,sonderpaedagogik,pink,,,Filiale,Stillerzeile 100,12587,52.453681,13.603770
09S06,09S06,Schule am Wildgarten,sonderpaedagogik,pink,foerderzentrum.trep-koep@t-online.de,http://www.schule-wildgarten.de,,Köpenicker Landstr. 185A,12437,52.473436,13.48707
09Y03,09Y03,Archenhold-Gymnasium,gymnasium,orange,sekretariat@archenhold.de,http://pi.archenhold.de,,Rudower Str. 7,12439,52.4514,13.52271
09Y04,09Y04,Anne-Frank-Gymnasium,gymnasium,orange,sekretariat@afg.schule.berlin.de,http://www.anne-frank-schule-berlin.de,,Uranusstr. 15 -17,12524,52.399327,13.525296
09Y05,09Y05,Alexander-von-Humboldt-Gymnasium,gymnasium,orange,sekretariat@avh-schule.de,http://www.avh-schule.de,,Oberspreestr. 173,12555,52.445252,13.566972
09Y06,09Y06,Gerhart-Hauptmann-Gymnasium,gymnasium,orange,sekretariat@ghs-berlin.de,http://www.ghs-berlin.de,,Bruno-Wille-Str. 37-45,12587,52.45227,13.63269
09Y10,09Y10,Gebrüder-Montgolfier-Gymnasium,gymnasium,orange,sekretariat@gemont.de,http://www.gemont.de,,Ellernweg 20-22,12487,52.44833,13.50379
09Y11,09Y11,Emmy-Noether-Gymnasium,gymnasium,orange,sekretariat@noether-gymnasium.de,http://www.noether-gymnasium.de,,Pablo-Neruda-Str. 6-7,12559,52.44275,13.588735
10B01,10B01,Oscar-Tietz-Schule (OSZ Handel II),osz,black,info@oscar-tietz-schule.de,http://www.oscar-tietz-schule.de,Hauptstandort,Marzahner Chaussee 231,12681,52.530072,13.533066
10B02,10B02,Rahel-Hirsch-Schule (OSZ Gesundheit/Medizin),osz,black,sekretariat@rahel-hirsch.schule,https://www.Rahel-Hirsch-Schule.de,Hauptstandort,Peter-Weiss-Gasse 8,12627,52.5381721,13.6080319
10G01,10G01,Paavo-Nurmi-Grundschule,grundschule,green,nurmi-grundschule@gmx.de,http://www.paavo-nurmi-grundschule.de,Hauptstandort,Schorfheidestr. 42,12689,52.570866,13.576437
10G03,10G03,Selma-Lagerlöf-Grundschule,grundschule,green,slagerloefg@aol.com,http://www.slgs.de,Hauptstandort,Wörlitzer Str. 31,12689,52.56767,13.57023
10G04,10G04,Falken-Grundschule,grundschule,green,sekretariat@falken-gs.schule.berlin.de,http://www.falken-grundschule.de,Hauptstandort,Geraer Ring 2,12689,52.56593,13.5564
10G05,10G05,Ebereschen-Grundschule,grundschule,green,ebereschen-gs@hotmail.de,http://www.ebereschen-grundschule.de,Hauptstandort,Borkheider Str. 27,12689,52.56407,13.57294
10G07,10G07,Karl-Friedrich-Friesen-Grundschule,grundschule,green,K.-F.-Friesen-Grundschule@t-online.de,http://kff.schule,Hauptstandort,Max-Herrmann-Str. 5,12687,52.55335,13.56415
10G08,10G08,Wilhelm-Busch-Grundschule,grundschule,green,Wilhelm-Busch-GS@t-online.de,http://wilhelm-busch-gs.de,Hauptstandort,Parsteiner Ring 24,12679,52.55325,13.58137
10G09,10G09,Grundschule am Bürgerpark,grundschule,green,sekretariat@buergerpark.schule.berlin.de,http://www.gs-am-buergerpark.de,Hauptstandort,Jan-Petersen-Str. 18B,12679,52.55062,13.56569
10G10,10G10,Peter-Pan-Grundschule,grundschule,green,Sekretariat@peter-pan.schule.berlin.de,http://www.peter-pan-grundschule.de,Hauptstandort,Stolzenhagener Str. 9,12679,52.548156,13.551672
10G11,10G11,Grundschule an der Mühle,grundschule,green,schulleitung@10G11.schule.berlin.de,,Hauptstandort,Kienbergstr. 59,12685,52.53976,13.5657
10G12,10G12,Grundschule an der Geißenweide,grundschule,green,sekretariat@geissenweide.schule.berlin.de,http://www.gsadgw.de,Hauptstandort,Amanlisweg 40,12685,52.537783,13.551797
10G13,10G13,Johann-Strauss-Grundschule,grundschule,green,sekretariat@johannstrauss.schule.berlin.de,http://www.johann-strauss-grundschule.de,Hauptstandort,Cecilienstr. 81,12683,52.52982,13.55966
10G14,10G14,Grundschule unter dem Regenbogen,grundschule,green,10g14@10g14.schule.berlin.de,http://www.grundschule-unterm-regenbogen.de,Hauptstandort,Murtzaner Ring 37,12681,52.5301,13.54212
10G16,10G16,Fuchsberg-Grundschule,grundschule,green,Sekretariat@fuchsberg.schule.berlin.de,http://www.grundschule-fuchsberg.de,Hauptstandort,Dankratweg 19,12683,52.49039,13.551484
10G17,10G17,Beatrix-Potter-Grundschule,grundschule,green,Sekretariat@beatrix-potter.schule.berlin.de,http://www.beatrix-potter-grundschule.de,Hauptstandort,Ludwigsfelder Str. 7,12629,52.54682,13.58926
10G18,10G18a,Pusteblume-Grundschule,grundschule,green,sekretariat@pusteblume-Grundschule.de,http://www.pusteblume-grundschule.de,Hauptstandort,Kastanienallee 118,12627,52.54256,13.6001
10G18,10G18b,Pusteblume-Grundschule,grundschule,green,,,Filiale,Kastanienallee 61,12627,52.540970,13.599913
10G19,10G19a,Bücherwurm-Schule am Weiher (Grundschule),grundschule,green,schulleitung@buecherwurm.schule.berlin.de,http://www.buecherwurm-grundschule.de,Hauptstandort,Eilenburger Str. 1,12627,52.54068,13.62913
10G19,10G19b,Bücherwurm-Schule am Weiher (Grundschule),grundschule,green,,,Filiale,Eilenburger Str. 6-8,12627,52.539784,13.630111
10G22,10G22,Kolibri-Grundschule,grundschule,green,10G22@10G22.schule.berlin.de,http://www.kolibri-grundschule.de,Hauptstandort,Schönewalder Str. 9,12627,52.532527,13.618558
10G25,10G25,Grundschule am Schleipfuhl,grundschule,green,schulleitung@schleipfuhl.schule.berlin.de,http://www.grundschule-am-schleipfuhl.de,Hauptstandort,Nossener Str. 85,12627,52.52913,13.6081
10G26,10G26,Friedrich-Schiller-Grundschule,grundschule,green,sekretariat@fsg.schule.berlin.de,http://friedrich-schiller-grundschule.de,Hauptstandort,An der Schule 13-17,12623,52.5115,13.614782
10G28,10G28,Grundschule am Hollerbusch,grundschule,green,10G28@10G28.schule.berlin.de,http://www.ganztaegig-lernen.de/grundschule-am-hollerbusch-berlin,Hauptstandort,Erich-Kästner-Str. 64,12619,52.52593,13.59512
10G29,10G29,Grundschule an der Wuhle,grundschule,green,grundschulea.d.wuhle@gmx.de,http://grundschuleanderwuhle.de,Hauptstandort,Teterower Ring 79,12619,52.52118,13.58041
10G30,10G30,Mahlsdorfer Grundschule,grundschule,green,sekretariat@mahlsdorfer-gs.schule.berlin.de,http://www.mahlsdorfer-grundschule.de,Hauptstandort,Feldrain 47,12623,52.522102,13.628787
10G31,10G31,Franz-Carl-Achard-Grundschule,grundschule,green,sekretariat@achard.schule.berlin.de,http://www.achard-grundschule.org,Hauptstandort,Adolfstr. 25,12621,52.507928,13.585120
10G32,10G32,Kiekemal-Schule (Grundschule),grundschule,green,10G32@10G32.schule.berlin.de,http://www.kiekemal-grundschule.de,Hauptstandort,Hultschiner Damm 219,12623,52.49407,13.60915
10G33,10G33,Ulmen-Grundschule,grundschule,green,10g33@10g33.schule.berlin.de,http://www.ulmenschule.de,Hauptstandort,Ulmenstr. 79-85,12621,52.48584,13.58006
10G34,10G34,Schule am grünen Stadtrand,grundschule,green,10G34@10G34.schule.berlin.de,http://www.schule-am-gruenen-stadtrand.de,Hauptstandort,Geraer Ring 54,12689,52.56973,13.56193
10K01,10K01,Rudolf-Virchow-Schule,iss,beige,kontakt@rvo-berlin.de,http://www.rvo-berlin.de,Hauptstandort,Glambecker Ring 90,12679,52.5555,13.57573
10K02,10K02,Ernst-Haeckel-Schule,iss,beige,haeckel-os@arcor.de,,Hauptstandort,Luckenwalder Str. 53,12629,52.54322,13.58574
10K03,10K03,Kerschensteiner-Schule,iss,beige,k-iss@gmx.net,http://www.k-iss.de,Hauptstandort,Golliner Str. 2,12689,52.56681,13.579505
10K05,10K05,Jean-Piaget-Schule,iss,beige,jean-piaget.oberschule@berlin.de,http://www.piaget-schule-berlin.de,Hauptstandort,Mittenwalder Str. 5,12629,52.54542,13.59615
10K06,10K06a,Georg-Klingenberg-Schule,iss,beige,sekretariat@klingenberg.schule.berlin.de,http://www.georg-klingenberg.schule,Hauptstandort,Alberichstr. 24,12683,52.49015,13.55783
10K07,10K07,Caspar-David-Friedrich-Schule,iss,beige,cdf-schulsekretariat@web.de,http://cdf-oberschule.de,Hauptstandort,Alte Hellersdorfer Str. 7,12629,52.535223,13.591017
10K08,10K08,Johann-Julius-Hecker-Schule,iss,beige,hecker@jjh-iss.de,http://www.jjh-iss.de,Hauptstandort,Hohenwalder Str. 2,12689,52.56993,13.57866
10K09,10K09,Konrad-Wachsmann-Schule,iss,beige,sekretariat@konrad-wachsmann.schule.berlin.de,http://www.konrad-wachsmann-schule.de,Hauptstandort,Geithainer Str. 12,12627,52.529047,13.622082
10K10,10K10,Wolfgang-Amadeus-Mozart-Schule (Gemeinschaftsschule),gemeinschaft,lightgreen,sekretariat@mozart.schule.berlin.de,www.mozart-schule.berlin,Hauptstandort,Cottbusser Str. 23,12627,52.53699,13.59663
10K11,10K11,Marcana-Schule (Gemeinschaftsschule),gemeinschaft,lightgreen,marcanaschule@t-online.de,http://www.marcana-schule.de,Hauptstandort,Flämingstr. 16-18,12689,52.56382,13.56592
10K12,10K12a,Gretel-Bergmann-Gemeinschaftsschule,gemeinschaft,lightgreen,gb-gems@mail.de,https://gretel-bergmann-gems.de/,Hauptstandort,Liebensteiner Straße 24,12687,52.557970,13.560062
10K13,10K13,13. Schule (Integrierte Sekundarschule),iss,beige,sekretariat@10K13.schule.berlin.de,,Hauptstandort,An der Schule 41-59,12623,52.508010,13.615787
10S04,10S04,Schule am Pappelhof,sonderpaedagogik,pink,info@pappelhof.schule.berlin.de,http://schule-am-pappelhof.de,Hauptstandort,Ketschendorfer Weg 21,12683,52.531157,13.553338
10S07,10S07,Schule am Rosenhain,sonderpaedagogik,pink,Sekretariat@rosenhain.schule.berlin.de,,Hauptstandort,Klingenthaler Str. 32,12627,52.53,13.60199
10S08,10S08,Schule am Mummelsoll,sonderpaedagogik,pink,schulleitung@10S08.schule.berlin.de,http://www.mummelsoll.de,Hauptstandort,Eilenburger Str. 4,12627,52.540282,13.629414
10Y01,10Y01,Tagore-Gymnasium,gymnasium,orange,schulleitung@tagore-gymnasium.de,http://www.tagore-gymnasium.de,Hauptstandort,Sella-Hasse-Str. 25,12687,52.55271,13.55658
10Y02,10Y02a,Otto-Nagel-Gymnasium,gymnasium,orange,sekretariat@otto-nagel-gymnasium.de,http://ong.berlin,Hauptstandort,Schulstr. 11,12683,52.511922,13.549199
10Y03,10Y03,Wilhelm-von-Siemens-Gymnasium,gymnasium,orange,schulleitung@wvsg.schule.berlin.de,http://wivonsi.be.schule.de,Hauptstandort,Allee der Kosmonauten 134,12683,52.533571,13.551106
10Y08,10Y08,Sartre-Gymnasium,gymnasium,orange,sekretariat@sartre-gymnasium.de,sartre-gymnasium.de,Hauptstandort,Kyritzer Str. 103,12629,52.54332,13.59106
10Y11,10Y11a,Melanchthon-Gymnasium,gymnasium,orange,spieler@melanchthon-schule-berlin.de,http://www.melanchthon-schule-berlin.de,Hauptstandort,Adele-Sandrock-Str. 73-75,12627,52.534367,13.618584
11B01,11B01,Hein-Moeller-Schule (OSZ Energietechnik II),osz,black,sekretariat@hein-moeller-schule.de,http://www.Hein-Moeller-Schule.de,Hauptstandort,Allee der Kosmonauten 18,10315,52.5234,13.51275
11B02,11B02,"Max-Taut-Schule (OSZ Gebäude, Umwelt, Technik)",osz,black,Schulleitung-MTS@max-taut-schule.de,http://www.max-taut-schule.de,Hauptstandort,Fischerstr. 36,10317,52.5013393,13.4862542
11B04,11B04a,Friedrich-List-Schule (OSZ Büromanagement und Wirtschaftssprachen),osz,black,info@fls-berlin.de,https://www.fls-berlin.de,Hauptstandort,Marktstr. 2-3,10317,52.50301,13.47466
11B04,11B04b,Friedrich-List-Schule (OSZ Büromanagement und Wirtschaftssprachen),osz,black,,,Filiale,Fischerstr. 32,10317,52.499092,13.489234
11G01,11G01,Sonnenuhr-Schule (Grundschule),grundschule,green,11G01@11G01.schule.berlin.de,http://www.sonnenuhr-schule.de,Hauptstandort,Franz-Jacob-Str. 33,10369,52.52933,13.46695
11G02,11G02,Schule am Roederplatz (Grundschule),grundschule,green,sekretariat-gs-am-roederplatz@t-online.de,http://gs-am-roederplatz.de,Hauptstandort,Bernhard-Bästlein-Str. 22,10367,52.52899,13.48214
11G03,11G03,Schule im Gutspark (Grundschule),grundschule,green,sekretariat@gutspark.schule.berlin.de,http://www.grundschule-im-gutspark.de,Hauptstandort,Josef-Orlopp-Str. 20,10367,52.52237,13.48307
11G05,11G05a,Schule auf dem lichten Berg (Grundschule),grundschule,green,schulleitung@11G05.schule.berlin.de,http://www.gs-lichtenberg-berlin.de,Hauptstandort,Atzpodienstr. 19,10365,52.51686,13.49421
11G05,11G05b,Schule auf dem lichten Berg (Grundschule),grundschule,green,,,Filiale,Siegfriedstr. 208-210,10365,52.513152,13.497628
11G06,11G06,Adam-Ries-Schule (Grundschule),grundschule,green,sekretariat-11g06@gmx.de,http://www.adamries.schule,Hauptstandort,Alt-Friedrichsfelde 66,10315,52.5114,13.53125
11G07,11G07,Hermann-Gmeiner-Schule (Grundschule),grundschule,green,Schulleitung@gmeiner.schule.berlin.de,http://www.gmeiner-schule-berlin.de,Hauptstandort,Harnackstr. 17,10365,52.5101,13.48594
11G08,11G08,Robinson-Schule (Grundschule),grundschule,green,11g08@11g08.schule.berlin.de,http://www.robinsonschule-berlin.de,Hauptstandort,Wönnichstr. 7,10317,52.510047,13.50046
11G09,11G09,Bürgermeister-Ziethen-Schule (Grundschule),grundschule,green,sekretariat@buezie.schule.berlin.de,http://www.buezie.de,Hauptstandort,Massower Str. 39,10315,52.50818,13.51665
11G10,11G10,Schule im Ostseekarree (Grundschule),grundschule,green,Sekretariat@11G10.schule.berlin.de,http://www.ostseekarree.net,Hauptstandort,Barther Str. 27,13051,52.56409,13.50024
11G11,11G11,Bernhard-Grzimek-Schule (Grundschule),grundschule,green,Sekretariat@grzimek.schule.berlin.de,http://bernhard-grzimek-schule.de,Hauptstandort,Sewanstr. 184,10319,52.49572,13.51176
11G12,11G12,Lew-Tolstoi-Schule (Grundschule),grundschule,green,sekretariat@11g12.schule.berlin.de,http://www.lew-tolstoi-schule.de,Hauptstandort,Römerweg 120,10318,52.49199,13.53678
11G13,11G13,Karlshorster Schule (Grundschule),grundschule,green,Sekr.KarlshorsterG@t-online.de,http://www.karlshorster-grundschule.de,Hauptstandort,Lisztstr. 6,10318,52.48925,13.51994
11G14,11G14,Richard-Wagner-Schule (Grundschule),grundschule,green,sekretariat@richard-wagner.schule.berlin.de,http://www.richard-wagner-grundschule.de,Hauptstandort,Ehrenfelsstr. 36,10318,52.479326,13.53427
11G16,11G16a,Schule an der Victoriastadt (Grundschule),grundschule,green,11g16@11g16.schule.berlin.de,http://www.gs-victoriastadt.de,Hauptstandort,Nöldnerstr. 44,10317,52.50159,13.48054
11G17,11G17,Brodowin-Schule (Grundschule),grundschule,green,11G17@11G17.schule.berlin.de,http://www.brodowinschule.de,Hauptstandort,Liebenwalder Str. 22,13055,52.53738,13.50067
11G18,11G18,Schule am Wilhelmsberg (Grundschule),grundschule,green,Wilhelmsberg@t-online.de,http://www.gs-am-wilhelmsberg.de,Hauptstandort,Sandinostr. 8,13055,52.537206,13.483664
11G19,11G19,Obersee-Schule (Grundschule),grundschule,green,sekretariat@obersee.schule.berlin.de,http://www.obersee-schule.de,Hauptstandort,Roedernstr. 69-72,13053,52.543711,13.488079
11G21,11G21,Schule Am Faulen See (Grundschule),grundschule,green,schule-am-faulen-see@gmx.de,http://www.schule-am-faulen-see.schule-berlin.net,Hauptstandort,Degnerstr. 71,13053,52.5521,13.49837
11G22,11G22,Martin-Niemöller-Grundschule,grundschule,green,MN11G22@t-online.de,http://Martin-Niemoeller-Schule.de,Hauptstandort,Am Breiten Luch 5,13053,52.56339,13.51209
11G23,11G23,Friedrichsfelder Schule (Grundschule),grundschule,green,Sekretariat11G23@t-online.de,http://friedrichsfelder-schule.de,Hauptstandort,Lincolnstr. 67,10315,52.503,13.50355
11G25,11G25,Schule am Wäldchen (Grundschule),grundschule,green,Grundschule-am-Waeldchen@t-online.de,http://www.schule-am-waeldchen.de,Hauptstandort,Wustrower Str. 28,13051,52.56846,13.50628
11G26,11G26,Randow-Schule (Grundschule),grundschule,green,Sekretariat@randow.schule.berlin.de,http://www.randow-schule.de,Hauptstandort,Randowstr. 45,13057,52.56405,13.51904
11G28,11G28a,Feldmark-Schule (Grundschule),grundschule,green,sekretariat@feldmark.schule.berlin.de,http://www.Feldmark-Schule.de,Hauptstandort,Wartiner Str. 23,13057,52.569161,13.531731
11G28,11G28b,Feldmark-Schule (Grundschule),grundschule,green,,,Filiale,,,,
11G29,11G29,Matibi-Schule (Grundschule),grundschule,green,sekretariat-11G29@t-online.de,http://www.matibi-grundschule.de,Hauptstandort,Prendener Str. 15,13059,52.5724,13.52072
11G29,11G29F,Matibi-Schule (Grundschule),grundschule,green,,,Filiale,Straße 3 Nr. 21,13059,52.581300,13.534435
11G31,11G31,Schmetterlings-Grundschule,grundschule,green,Sekretariat@11G31.schule.berlin.de,http://www.schmetterlings-grundschule.de,Hauptstandort,Dolgenseestr. 60,10319,52.49417,13.50546
11G32,11G32,Hans-Rosenthal-Grundschule,grundschule,green,11G32@11G32.schule.berlin.de,http://www.11G32.de,Hauptstandort,Bernhard-Bästlein-Straße 56,10367,52.531774,13.480860
11G33,11G33,33. Schule (Grundschule),grundschule,green,11G33@11G33.schule.berlin.de,,Hauptstandort,Rüdigerstr. 76,10365,52.516342,13.501205
11G34,11G34,34. Schule (Grundschule),grundschule,green,11G34@11G34.schule.berlin.de,,Hauptstandort,Konrad-Wolf-Str. 11,13055,52.547866,13.498831
11G35,11G35,35. Schule (Grundschule),grundschule,green,11g35@11g35.schule.berlin.de,,Hauptstandort,Sewanstr. 43,10319,52.498978,13.502358
11K01,11K01,Alexander-Puschkin-Schule,iss,beige,mail@puschkinschule.eu,http://www.puschkinschule.eu,Hauptstandort,Massower Str. 37,10315,52.50795,13.51556
11K02,11K02,Mildred-Harnack-Schule,iss,beige,sekretariat@mh.schule.berlin.de,http://www.mildred-harnack-schule.de,Hauptstandort,Schulze-Boysen-Str. 12,10365,52.511321,13.481213
11K04,11K04,Gutenberg-Schule,iss,beige,gutenberg-os@t-online.de,http://www.gutenberg-os.de,Hauptstandort,Sandinostr. 10,13055,52.53573,13.48743
11K05,11K05,Fritz-Reuter-Schule,iss,beige,fritz@fritz-reuter-oberschule.de,http://www.Fritz-Reuter-Oberschule.de,Hauptstandort,Prendener Str. 29,13059,52.570237,13.52104
11K06,11K06a,Schule am Rathaus,iss,beige,OberschuleamRathaus@t-online.de,http://www.schuleamrathaus.de,Hauptstandort,Rathausstr. 8,10367,52.515571,13.480570
11K07,11K07,Vincent-van-Gogh-Schule,iss,beige,vincent-van-gogh@t-online.de,,Hauptstandort,Wustrower Str. 26,13051,52.5678,13.50702
11K08,11K08,George-Orwell-Schule,iss,beige,info@george-orwell-oberschule.de,http://www.george-orwell-oberschule.de,Hauptstandort,Sewanstr. 223,10319,52.496354,13.514933
11K09,11K09a,Philipp-Reis-Schule,iss,beige,info@philipp-reis-oberschule.de,http://www.philipp-reis-oberschule.de,Hauptstandort,Werneuchener Str. 15,13055,52.53952,13.49572
11K10,11K10a,Grüner Campus Malchow,gemeinschaft,lightgreen,schulleiter@gruener-campus-malchow.de,http://www.gruener-campus-malchow.de,Hauptstandort,Malchower Chaussee 2,13051,52.571659,13.484038
11K10,11K10b,Grüner Campus Malchow,gemeinschaft,lightgreen,,,Filiale,Doberaner Str. 55,13051,52.569228,13.491782
11K10,11K10c,Grüner Campus Malchow,gemeinschaft,lightgreen,,,Filiale,,,52.568691,13.492416
11K10,11K10d,Grüner Campus Malchow,gemeinschaft,lightgreen,,,Filiale,,,52.569924,13.492111
11K11,11K11a,Paul-Schmidt-Schule (Integrierte Sekundarschule),iss,beige,info@paul-schmidt-schule.de,http://www.paul-schmidt-schule.de,Hauptstandort,Malchower Weg 54,13053,52.55475,13.50438
11K11,11K11b,Paul-Schmidt-Schule (Integrierte Sekundarschule),iss,beige,,,Filiale,Rüdickenstraße 24,13053,52.560901,13.507430
11K12,11K12a,Paul-und-Charlotte-Kniese-Schule (Gemeinschaftsschule),gemeinschaft,lightgreen,sekretariat@kniese-schule-berlin.de,http://www.kniese-schule-berlin.de,Hauptstandort,Erich-Kurz-Str. 6-10,10319,52.498846,13.519748
11K12,11K12b,Paul-und-Charlotte-Kniese-Schule (Gemeinschaftsschule),gemeinschaft,lightgreen,,,Filiale,Dolgenseestr. 60,10319,52.494202,13.505215
11S02,11S02,Schule am Fennpfuhl,sonderpaedagogik,pink,Schule-am-Fennpfuhl@t-online.de,,Hauptstandort,Alfred-Jung-Str. 19,10369,52.52392,13.4769
11S04,11S04,Paul-und-Charlotte-Kniese-Schule,sonderpaedagogik,pink,sekretariat@kniese-schule-berlin.de,http://www.kniese-schule-berlin.de,Hauptstandort,Erich-Kurz-Str. 6-10,10319,52.498353,13.519085
11S05,11S05,Schule am grünen Grund,sonderpaedagogik,pink,schule-am-gruenen-grund@t-online.de,,Hauptstandort,Herzbergstr. 79,10365,52.52822,13.50858
11S06,11S06,Selma-Lagerlöf-Schule,sonderpaedagogik,pink,sekretariat@11S06.schule.berlin.de,http://www.sprachheilschule-selma-lagerloef.de,Doppelstandort,Bernhard-Bästlein-Str. 56,10367,52.53183,13.47998
11S07,11S07,Carl-von-Linné-Schule,sonderpaedagogik,pink,sekretariat@linne.schule.berlin.de,,Hauptstandort,Paul-Junius-Str. 15,10367,52.5217,13.47301
11S08,11S08,Schule Am Breiten Luch,sonderpaedagogik,pink,Sekretariat@11S08.schule.berlin.de,,Hauptstandort,Am Breiten Luch 19,13053,52.5627,13.5136
11S12,11S12,Nils-Holgersson-Schule,sonderpaedagogik,pink,mail@nils-holgersson-schule-berlin.de,,Hauptstandort,Otto-Marquardt-Str. 12-14,10369,52.53405,13.47214
11Y02,11Y02,Johann-Gottfried-Herder-Gymnasium,gymnasium,orange,sekretariat@jgherder.de,http://www.jgherder.de,Hauptstandort,Franz-Jacob-Str. 8,10369,52.52671,13.467245
11Y05,11Y05,Hans-und-Hilde-Coppi-Gymnasium,gymnasium,orange,sekretariat@coppi-gym.de,http://www.coppi-gym.de,Hauptstandort,Römerweg 30-32,10318,52.4918,13.52343
11Y09,11Y09a,Barnim-Gymnasium,gymnasium,orange,kontakt@barnim-gymnasium.net,http://www.barnim-gymnasium.net,Hauptstandort,Ahrensfelder Chaussee 41,13057,52.569201,13.549303
11Y09,11Y09c,Barnim-Gymnasium,gymnasium,orange,,,Filiale,,,,
11Y10,11Y10,Manfred-von-Ardenne-Gymnasium,gymnasium,orange,info@ardenne-gymnasium.de,http://www.ardenne-gymnasium.de,Hauptstandort,Werneuchener Str. 27-28,13055,52.54188,13.49242
11Y11,11Y11,Immanuel-Kant-Gymnasium,gymnasium,orange,sekretariat@kant-gymnasium.de,http://www.kant-gymnasium.de,Hauptstandort,Lückstr. 63,10317,52.501956,13.489635
12B01,12B01,Georg-Schlesinger-Schule (OSZ Maschinen- u. Fertigungstechnik),osz,black,schulbuero@gs-schule.de,http://www.gs-schule.de,Hauptstandort,Kühleweinstr. 5,13409,52.5612027,13.3712905
12B02,12B02,Emil-Fischer-Schule (OSZ Ernährung und Lebensmitteltechnik),osz,black,sekretariat@emilfischerschule.de,http://www.emilfischerschule.de,Hauptstandort,Cyclopstr. 1-5,13437,52.5980632,13.3305532
12B03,12B03,Ernst-Litfaß-Schule (OSZ Mediengestaltung und Medientechnologie),osz,black,litfass@ernst-litfass-schule.de,http://www.ernst-litfass-schule.de,Hauptstandort,Cyclopstr. 1-5,13437,52.5980369,13.3301019
12G01,12G01,Havelmüller-Grundschule,grundschule,green,12G01@12G01.schule.berlin.de,http://havelmueller-grundschule.de,,Namslaustr. 49-57,13507,52.578512,13.284936
12G02,12G02,Grundschule am Schäfersee,grundschule,green,schulleitung@schaefersee-grundschule.de,http://www.schaefersee-grundschule.de,,Baseler Str. 2-6,13407,52.5622,13.3554
12G03,12G03,Reginhard-Grundschule,grundschule,green,12g03@12g03.schule.berlin.de,http://www.reginhard.cidsnet.de,,Letteallee 39-41,13409,52.563219,13.370292
12G04,12G04,Till-Eulenspiegel-Grundschule,grundschule,green,sekretariat@eulenspiegel-schule-berlin.de,http://www.eulenspiegel-schule-berlin.de,,Humboldtstr. 8-13,13407,52.5732,13.3423
12G05,12G05,Kolumbus-Grundschule,grundschule,green,Kolumbus-Grundschule@t-online.de,http://www.kolumbus-schule.de,,Büchsenweg 23A,13409,52.57569,13.36622
12G06,12G06,Hausotter-Grundschule,grundschule,green,hausotter-grundschule@gmx.de,http://hausotter-grundschule.de,,Hausotterplatz 4,13409,52.56963,13.375634
12G07,12G07,Mark-Twain-Grundschule,grundschule,green,schulleitung@twainmail.de,http://www.twainweb.de,,Auguste-Viktoria-Allee 95,13403,52.56864,13.3264
12G09,12G09,Grundschule an der Peckwisch,grundschule,green,schulleitung@peckwisch.de,http://www.peckwisch.de,,Tornower Weg 26-34,13439,52.59299,13.34869
12G10,12G10,Peter-Witte-Grundschule,grundschule,green,sekretariat@12g10.schule.berlin.de,http://www.peter-witte-schule.de,,Rathauspromenade 75,13437,52.5863,13.33039
12G11,12G11,Ringelnatz-Grundschule,grundschule,green,Ringelnatz-Schule@t-online.de,http://www.ringelnatz-grundschule.de/,,Wilhelm-Gericke-Str. 7,13437,52.5861,13.33753
12G12,12G12,Borsigwalder Grundschule,grundschule,green,sekretariat@borsigwaldergs.de,http://borsigwaldergs.de,,Miraustr. 100,13509,52.58822,13.30561
12G13,12G13,Franz-Marc-Grundschule,grundschule,green,sekretariat@fmg.schule.berlin.de,http://www.fmg-tegel.de,,Treskowstr. 26-31,13507,52.58822,13.2828
12G14,12G14,Alfred-Brehm-Grundschule,grundschule,green,brehm-schule@web.de,http://www.alfred-brehm-schule.de,,Ascheberger Weg 8A,13507,52.57359,13.28368
12G15,12G15,Hoffmann-von-Fallersleben-Grundschule,grundschule,green,Sekretariat@hvfg.schule.berlin.de,http://www.fallersleben-grundschule-berlin.de,,Ziekowstr. 80-88,13509,52.58744,13.29515
12G17,12G17,Ellef-Ringnes-Grundschule,grundschule,green,sekretariat@erg.schule.berlin.de,http://www.ellef-ringnes-grundschule.de,,Im Erpelgrund 11-17,13503,52.60802,13.23202
12G18,12G18,Grundschule am Tegelschen Ort,grundschule,green,info@grundschule-tegelort.de,http://www.grundschule-tegelort.de,,Gerlindeweg 11-23,13505,52.576181,13.228007
12G19,12G19,Münchhausen-Grundschule,grundschule,green,muenchhausen-gs@web.de,http://www.muenchhausen-grundschule.de,,Artemisstr. 22-26,13469,52.60851,13.31718
12G20,12G20,Grundschule am Vierrutenberg,grundschule,green,sekretariat@gs-am-vierrutenberg.de,http://www.grundschule-am-vierrutenberg.de,,Am Vierrutenberg 59-65,13469,52.617516,13.339396
12G21,12G21,Grundschule am Fließtal,grundschule,green,buero@gsfliesstal.de,http://www.grundschule-am-fliesstal.de,,Seebadstr. 42-43,13467,52.61528,13.32062
12G22,12G22,Gustav-Dreyer-Grundschule,grundschule,green,schulleitung@gustav-dreyer-schule.de,http://www.gustav-dreyer-schule.de,,Freiherr-vom-Stein-Str. 31,13467,52.61309,13.30379
12G23,12G23,Victor-Gollancz-Grundschule,grundschule,green,schule@gollancz.de,http://www.victor-gollancz-grundschule.de,,Gollanczstr. 18-24,13465,52.63826,13.28757
12G24,12G24,Renée-Sintenis-Grundschule,grundschule,green,Renee.Sintenis@t-online.de,http://www.Renee-Sintenis-Grundschule.de,,Laurinsteig 39-45,13465,52.63695,13.27237
12G26,12G26,Märkische Grundschule,grundschule,green,26.G@staatliche-Europa-schule.de,http://www.staatliche-europa-schule.de,,Dannenwalder Weg 163-165,13439,52.5952,13.36016
12G27,12G27,Chamisso-Grundschule,grundschule,green,info@chamisso-grundschule.de,http://www.chamisso-grundschule.com,,Senftenberger Ring 27,13435,52.60169,13.35807
12G28,12G28,Grundschule in den Rollbergen,grundschule,green,rollberge@web.de,http://www.rollberge.de,,Waldshuter Zeile 6,13469,52.609905,13.335731
12G29,12G29,Hermann-Schulz-Grundschule,grundschule,green,hermann.schulz.grundschule@googlemail.com,http://www.hermann-schulz-grundschule.de,,Kienhorststr. 67-79,13403,52.57359,13.32554
12G30,12G30,Reineke-Fuchs-Grundschule,grundschule,green,sekretariat@reineke-fuchs.schule.berlin.de,http://www.reineke-fuchs-grundschule.de/,,Foxweg 15,13403,52.574,13.30985
12G32,12G32,Charlie-Chaplin-Grundschule,grundschule,green,charlie-chaplin.grundschule@web.de,http://charlie-chaplin-grundschule.de,,Wilhelmsruher Damm 90-94,13439,52.59744,13.36465
12G33,12G33,Lauterbach-Grundschule,grundschule,green,sek.12G33@lauterbach.schule.berlin.de,http://www.lauterbach-schule.de,,Senftenberger Ring 41,13435,52.603879,13.359443
12G34,12G34,Otfried-Preußler-Grundschule,grundschule,green,sekretariat@ops.schule.berlin.de,http://www.ops-berlin.de,,Schulzendorfer Str. 99,13503,52.613129,13.227141
12K01,12K01,Julius-Leber-Schule,iss,beige,sekretariat@jls-berlin.de,http://www.jls-berlin.de,,Treskowstr. 26-31,13507,52.58822,13.2828
12K02,12K02,Bettina-von-Arnim-Schule,iss,beige,info@bettina-schule.de,http://www.bettina-schule.de,,Senftenberger Ring 49,13435,52.60511,13.35859
12K03,12K03,Max-Beckmann-Schule (Integrierte Sekundarschule),iss,beige,schulleitung@m-b-o.net,http://www.m-b-o.net,,Auguste-Viktoria-Allee 37,13403,52.57153,13.31463
12K04,12K04,Paul-Löbe-Schule,iss,beige,paul-loebe-schule@gmx.de,http://www.paul-loebe-schule.de,,Lindauer Allee 23-25,13407,52.57316,13.35461
12K05,12K05,Gustav-Freytag-Schule (Integrierte Sekundarschule),iss,beige,kontakt@gustav-freytag-schule.berlin,http://www.gustav-freytag-schule.berlin,,Breitkopfstr. 66-80,13409,52.56976,13.36575
12K06,12K06,Benjamin-Franklin-Schule (Integrierte Sekundarschule),iss,beige,info@benjamin-franklin-schule.de,http://www.benjamin-franklin-schule.de,,Sommerfelder Str. 5-7,13509,52.581447,13.300983
12K07,12K07,Jean-Krämer-Schule (Integrierte Sekundarschule) Wittenau,iss,beige,12K07@12K07.schule.berlin.de,http://www.jeankraemerschule.de,,Alt-Wittenau 8-12,13437,52.58995,13.33545
12K09,12K09,Carl-Benz-Schule (Integrierte Sekundarschule),iss,beige,sek@cbo-iss.de,,,Heidenheimer Str. 53-54,13467,52.615646,13.298748
12K10,12K10,Carl-Bosch-Schule,iss,beige,buero.cabo@t-online.de,http://www.carlbosch.de,,Frohnauer Str. 74-80,13467,52.62349,13.29375
12K11,12K11a,Albrecht-Haushofer-Schule,iss,beige,sekretariat@12k11.schule.berlin.de,http://www.albrecht-haushofer-schule.de,,Kurzebracker Weg 40-46,13503,52.61914,13.22771
12K11,12K11b,Albrecht-Haushofer-Schule,iss,beige,,,Filiale,,,,
12K12,12K12a,Campus Hannah Höch (Gemeinschaftsschule),gemeinschaft,lightgreen,12K12@12K12.schule.berlin.de,http://www.campus-hannah-hoech.de,,Finsterwalder Str. 52-56,13435,52.601189,13.344640
12S01,12S01,Stötzner-Schule,sonderpaedagogik,pink,verwaltung@stoetznerschule-berlin.de,http://www.stoetznerschule-berlin.de,,Tietzstr. 26-28,13509,52.584273,13.304873
12S03,12S03,Lauterbach-Schule,sonderpaedagogik,pink,sek.12S03@lauterbach.schule.berlin.de,http://www.lauterbach-schule.de,,Senftenberger Ring 41,13435,52.603879,13.359443
12S04,12S04,Schule am Park,sonderpaedagogik,pink,schule.am.park@web.de,http://www.schule-am-park-berlin.de,,Eichborndamm 276-284,13437,52.594285,13.330313
12S05,12S05,Wiesengrund-Schule,sonderpaedagogik,pink,wiesengrund-schule@t-online.de,,,Frohnauer Str. 74-80,13467,52.62349,13.29375
12S06,12S06,Toulouse-Lautrec-Schule,sonderpaedagogik,pink,sekretariat@toulouse-lautrec-schule.de,http://www.toulouse-lautrec-schule.de,,Miraustr. 120-126,13509,52.58901,13.30389
12Y01,12Y01,Friedrich-Engels-Gymnasium,gymnasium,orange,feg@freenet.de,http://www.feg.berlin,,Emmentaler Str. 67,13407,52.56959,13.35743
12Y02,12Y02,Europäisches Gymnasium Bertha-von-Suttner,gymnasium,orange,verwaltung@bertha-von-suttner.de,http://www.bertha-von-suttner.de,,Reginhardstr. 172,13409,52.57145,13.36873
12Y03,12Y03,Humboldt-Gymnasium,gymnasium,orange,sekretariat@humboldtschule-berlin.eu,http://www.humboldtschule-berlin.de,,Hatzfeldtallee 2-4,13509,52.59176,13.28891
12Y04,12Y04,Gabriele-von-Bülow-Gymnasium,gymnasium,orange,info@gvb-berlin.de,http://www.gvb-berlin.de,,Tile-Brügge-Weg 63,13509,52.592148,13.297061
12Y05,12Y05,Georg-Herwegh-Gymnasium,gymnasium,orange,mail@herwegh-gymnasium.de,http://www.herwegh-gymnasium.de,,Fellbacher Str. 18-19,13467,52.616834,13.303382
12Y06,12Y06,Schulfarm Insel Scharfenberg,gymnasium,orange,verwaltung@insel-scharfenberg.de,http://www.insel-scharfenberg.de,,Schwarzer Weg 101-105,13505,52.574383,13.247293
12Y07,12Y07a,Romain-Rolland-Gymnasium,gymnasium,orange,sekretariat@roromail.de,http://www.romain-rolland-gymnasium.eu,,Place Moliere 4,13469,52.598998,13.317865
12Y07,12Y07b,Romain-Rolland-Gymnasium,gymnasium,orange,,,Filiale,Hermsdorfer Str. 14,13437,52.598111,13.324183
12Y08,12Y08,Thomas-Mann-Gymnasium,gymnasium,orange,sekretariat@tmgberlin.de,http://www.tmgberlin.de,,Königshorster Str. 10,13439,52.59848,13.35224